ZIP,city,state
10994,Burlington,New York
13208,Macedonia,New York
14220,Hudson,New York
15216,Greensburg,Pennsylvania
15216,Pittsburgh,Pennsylvania
15216,Queens Village,Pennsylvania
15216,Saint Marys,Pennsylvania
15216,null,Pennsylvania
1523,Biddeford,Massachusetts
16830,Clearfield,Pennsylvania
1852,Lancaster,Massachusetts
1852,Nashua,Massachusetts
1852,Seattle,Massachusetts
1852,Tyngsboro,Massachusetts
18915,Ambler,Pennsylvania
18915,Bethlehem,Pennsylvania
18915,Bryn Mawr,Pennsylvania
18915,Camden,Pennsylvania
18915,Chalfont,Pennsylvania
18915,Collegeville,Pennsylvania
18915,Conshohocken,Pennsylvania
18915,Douglasville,Pennsylvania
18915,Doylestown,Pennsylvania
18915,Easton,Pennsylvania
18915,Florence,Pennsylvania
18915,Hatfield,Pennsylvania
18915,Herndon,Pennsylvania
18915,King George,Pennsylvania
18915,Lansdale,Pennsylvania
18915,Millsboro,Pennsylvania
18915,Montgomery,Pennsylvania
18915,Moorestown Township,Pennsylvania
18915,Morton,Pennsylvania
18915,Newfoundland,Pennsylvania
18915,Newton,Pennsylvania
18915,Norristown,Pennsylvania
18915,Oakhurst,Pennsylvania
18915,Philadelphia,Pennsylvania
18915,Plymouth Meeting,Pennsylvania
18915,Royersford,Pennsylvania
18915,Sellersville,Pennsylvania
18915,Upper Marlboro,Pennsylvania
18915,Warminster,Pennsylvania
18915,Washington,Pennsylvania
18915,Wayne,Pennsylvania
18915,Woodbine,Pennsylvania
18915,null,Pennsylvania
20176,Alexandria,Virginia
20176,Annandale,Virginia
20176,Ashburn,Virginia
20176,Bowie,Virginia
20176,Seaford,Virginia
2032,Springfield,Massachusetts
20724,Gaithersburg,Maryland
20852,Arlington,Maryland
20852,Frederick,Maryland
20852,Gaithersburg,Maryland
20852,Potomac,Maryland
20852,Silver Spring,Maryland
2090,Newtonville,Massachusetts
2090,Orono,Massachusetts
21061,Arnold,Maryland
21061,Wilmington,Maryland
2132,Kents Hill,Massachusetts
2132,Portland,Massachusetts
2132,Portsmouth,Massachusetts
2132,South Portland,Massachusetts
2132,Tulsa,Massachusetts
2132,Windsor,Massachusetts
2132,null,Massachusetts
21921,Byron,Maryland
21921,Elkton,Maryland
22046,Alexandria,Virginia
22046,McLean,Virginia
22046,Pittsburgh,Virginia
22046,Salinas,Virginia
22046,Sterling Heights,Virginia
22046,Upper Marlboro,Virginia
22046,Washington,Virginia
22046,null,Virginia
22302,Alexandria,Virginia
22302,Annandale,Virginia
22302,Arlington,Virginia
22302,Ashburn,Virginia
22302,Baltimore,Virginia
22302,Bethesda,Virginia
22302,Bowie,Virginia
22302,Brookhaven,Virginia
22302,Burke,Virginia
22302,Centreville,Virginia
22302,Charles City,Virginia
22302,Charlotte,Virginia
22302,Clinton,Virginia
22302,Cumberland,Virginia
22302,Dumfries,Virginia
22302,Fairfax,Virginia
22302,Fairmont,Virginia
22302,Falls Church,Virginia
22302,Fort Collins,Virginia
22302,Great Falls,Virginia
22302,Greater Capitol Heights,Virginia
22302,Greer,Virginia
22302,Herndon,Virginia
22302,Hopewell,Virginia
22302,Hyattsville,Virginia
22302,Jersey City,Virginia
22302,Lanham,Virginia
22302,Manassas,Virginia
22302,McLean,Virginia
22302,New York,Virginia
22302,Oxon Hill,Virginia
22302,Parkville,Virginia
22302,Pasadena,Virginia
22302,Pflugerville,Virginia
22302,Pittsburgh,Virginia
22302,Potomac,Virginia
22302,Rockville,Virginia
22302,Silver Spring,Virginia
22302,Springfield,Virginia
22302,Stafford,Virginia
22302,Sterling,Virginia
22302,Strasburg,Virginia
22302,Suitland,Virginia
22302,Upper Marlboro,Virginia
22302,Waldorf,Virginia
22302,Washington,Virginia
22302,Woodbridge,Virginia
22302,Woodsboro,Virginia
22302,null,Virginia
22312,Alexandria,Virginia
22312,Bristow,Virginia
22312,Fairfax,Virginia
22312,Manassas,Virginia
22312,Portsmouth,Virginia
22312,Richmond,Virginia
22312,Waldorf,Virginia
22312,Washington,Virginia
22312,null,Virginia
22849,Clarks Summit,Virginia
22849,Edinburg,Virginia
22849,Staunton,Virginia
23112,Richmond,Virginia
23235,Charlottesville,Virginia
23235,Chester,Virginia
23235,Richmond,Virginia
23235,null,Virginia
2339,Biddeford,Massachusetts
2339,Cumberland,Massachusetts
23455,Elizabeth City,Virginia
23455,Moravian Falls,Virginia
23455,Richmond,Virginia
23455,Unorganized Territory of Camp Lejeune,Virginia
23455,Virginia Beach,Virginia
23707,Portsmouth,Virginia
23901,Charlotte,Virginia
23901,Farmville,Virginia
23901,null,Virginia
23970,Richmond,Virginia
24210,Abingdon,Virginia
24210,Elizabethton,Virginia
24210,null,Virginia
24416,Ashburn,Virginia
24416,Buckingham,Virginia
24416,Lexington,Virginia
24416,null,Virginia
24450,Altavista,Virginia
24450,Earlysville,Virginia
24450,Las Vegas,Virginia
24450,Midlothian,Virginia
24572,Arrington,Virginia
24572,Lynchburg,Virginia
24572,Madison Heights,Virginia
24572,Mansfield,Virginia
25526,Charleston,West Virginia
25526,Hurricane,West Virginia
25526,Redmond,West Virginia
25526,Saint Albans,West Virginia
25526,Tornado,West Virginia
25526,Yawkey,West Virginia
25526,null,West Virginia
2601,Auburn,Massachusetts
2601,Biddeford,Massachusetts
2653,Cornelius,Massachusetts
2653,Saco,Massachusetts
2653,South Portland,Massachusetts
27025,Belgrade,North Carolina
27025,Durham,North Carolina
27025,High Point,North Carolina
27025,Kannapolis,North Carolina
27025,Siler City,North Carolina
27028,Concord,North Carolina
27028,Kernersville,North Carolina
27028,Lexington,North Carolina
27028,Mocksville,North Carolina
27028,Mount Airy,North Carolina
27028,Salisbury,North Carolina
27028,Wilkesboro,North Carolina
27028,null,North Carolina
27030,Apex,North Carolina
27030,Charlottesville,North Carolina
27030,Clemmons,North Carolina
27030,Fayetteville,North Carolina
27030,Greensboro,North Carolina
27030,Hickory,North Carolina
27030,Houma,North Carolina
27030,Pinnacle,North Carolina
27030,Raleigh,North Carolina
27030,Rural Hall,North Carolina
27030,Winston-Salem,North Carolina
27101,Charlotte,North Carolina
27101,Greensboro,North Carolina
27101,Hickory,North Carolina
27101,High Point,North Carolina
27101,Hāsal,North Carolina
27101,Winston-Salem,North Carolina
27104,Charlotte,North Carolina
27104,Kernersville,North Carolina
27105,Charlotte,North Carolina
27105,Greensboro,North Carolina
27105,High Point,North Carolina
27105,Kernersville,North Carolina
27105,Mocksville,North Carolina
27105,New York,North Carolina
27105,Raleigh,North Carolina
27105,Roanoke,North Carolina
27105,Salisbury,North Carolina
27105,Walkertown,North Carolina
27105,Winston-Salem,North Carolina
27105,null,North Carolina
27106,Clemmons,North Carolina
27127,Durham,North Carolina
27127,Greensboro,North Carolina
27127,Lexington,North Carolina
27203,Princeton,North Carolina
27203,Thomasville,North Carolina
27215,Burlington,North Carolina
27215,Graham,North Carolina
27215,Greensboro,North Carolina
27215,High Point,North Carolina
27215,Kernersville,North Carolina
27215,Mebane,North Carolina
27215,Mocksville,North Carolina
27215,New York,North Carolina
27215,Novosibirsk,North Carolina
27215,Seagrove,North Carolina
27215,Wake Forest,North Carolina
27215,Walnut Cove,North Carolina
27215,null,North Carolina
27260,High Point,North Carolina
27260,Winston-Salem,North Carolina
27262,Bland,North Carolina
27262,Charlotte,North Carolina
27262,Ellenwood,North Carolina
27262,Gastonia,North Carolina
27262,Grand Rapids,North Carolina
27262,Gray Court,North Carolina
27262,Greensboro,North Carolina
27262,Greenup,North Carolina
27262,High Point,North Carolina
27262,Hillsborough,North Carolina
27262,Kernersville,North Carolina
27262,Lexington,North Carolina
27262,Lincoln,North Carolina
27262,McLeansville,North Carolina
27262,Mocksville,North Carolina
27262,Raleigh,North Carolina
27262,Rock Hill,North Carolina
27262,Rural Hall,North Carolina
27262,San Bruno,North Carolina
27262,Smithfield,North Carolina
27262,Statesville,North Carolina
27262,Summerfield,North Carolina
27262,Thomasville,North Carolina
27262,Trinity,North Carolina
27262,Winston-Salem,North Carolina
27262,null,North Carolina
27263,Berwyn,North Carolina
27263,Cornelius,North Carolina
27263,Greensboro,North Carolina
27263,Holly Springs,North Carolina
27263,Minneapolis,North Carolina
27263,Oak Ridge,North Carolina
27263,Olivia,North Carolina
27263,Raleigh,North Carolina
27263,Winston-Salem,North Carolina
27284,Burlington,North Carolina
27284,Clayton,North Carolina
27284,Greensboro,North Carolina
27284,High Point,North Carolina
27284,New York,North Carolina
27284,Summerfield,North Carolina
27284,Tempe,North Carolina
27284,Winston-Salem,North Carolina
27288,Charlotte,North Carolina
27288,Durham,North Carolina
27288,Eden,North Carolina
27288,Winston-Salem,North Carolina
27332,Erwin,North Carolina
27332,Garner,North Carolina
27357,Belgrade,North Carolina
27357,Boone,North Carolina
27357,Durham,North Carolina
27357,Grover,North Carolina
27357,Kannapolis,North Carolina
27357,Knightdale,North Carolina
27357,Winston-Salem,North Carolina
27357,null,North Carolina
27358,Zebulon,North Carolina
27403,Matthews,North Carolina
27403,Mocksville,North Carolina
27403,null,North Carolina
27405,Greensboro,North Carolina
27405,King of Prussia,North Carolina
27405,McLeansville,North Carolina
27405,Mount Airy,North Carolina
27405,Toledo,North Carolina
27405,null,North Carolina
27406,Dunn,North Carolina
27406,Greenville,North Carolina
27511,Cary,North Carolina
27513,Albemarle,North Carolina
27513,Apex,North Carolina
27513,Burlington,North Carolina
27513,Cameron,North Carolina
27513,Cary,North Carolina
27513,Chapel Hill,North Carolina
27513,Clayton,North Carolina
27513,Corryton,North Carolina
27513,Durham,North Carolina
27513,Elizabethtown,North Carolina
27513,Fayetteville,North Carolina
27513,Fort Collins,North Carolina
27513,Garner,North Carolina
27513,Goldsboro,North Carolina
27513,Greensboro,North Carolina
27513,Greenville,North Carolina
27513,Hilliard,North Carolina
27513,Holly Springs,North Carolina
27513,Knightdale,North Carolina
27513,Long Island City,North Carolina
27513,Menlo Park,North Carolina
27513,Mooresville,North Carolina
27513,Morrisville,North Carolina
27513,Pittsboro,North Carolina
27513,Portsmouth,North Carolina
27513,Raleigh,North Carolina
27513,Richmond,North Carolina
27513,Stratford,North Carolina
27513,Thomasville,North Carolina
27513,Wake Forest,North Carolina
27513,Winston-Salem,North Carolina
27513,Zebulon,North Carolina
27513,null,North Carolina
27520,Lumberton,North Carolina
27526,Apex,North Carolina
27526,Garner,North Carolina
27526,Knightdale,North Carolina
27526,Raleigh,North Carolina
27526,Spring Hope,North Carolina
27526,Spring Lake,North Carolina
27526,Vass,North Carolina
27529,Fuquay-Varina,North Carolina
27529,New York,North Carolina
27529,Selma,North Carolina
27529,null,North Carolina
27537,Fayetteville,North Carolina
27537,Roanoke Rapids,North Carolina
27549,Fayetteville,North Carolina
27549,Washington,North Carolina
27592,Clayton,North Carolina
27592,Clemmons,North Carolina
27592,Clinton,North Carolina
27592,Durham,North Carolina
27592,East Thetford,North Carolina
27592,Fayetteville,North Carolina
27592,Garner,North Carolina
27592,Goldsboro,North Carolina
27592,Pfafftown,North Carolina
27592,Raleigh,North Carolina
27592,Spring Lake,North Carolina
27592,Wake Forest,North Carolina
27592,Weymouth,North Carolina
27592,Willow Springs,North Carolina
27592,Wilmington,North Carolina
27592,null,North Carolina
27596,Durham,North Carolina
27596,Elm City,North Carolina
27596,Fayetteville,North Carolina
27596,Kill Devil Hills,North Carolina
27596,Nashville,North Carolina
27596,Raleigh,North Carolina
27596,Smithfield,North Carolina
27596,Wake Forest,North Carolina
27596,null,North Carolina
27603,Cartersville,North Carolina
27603,Cary,North Carolina
27603,Chester,North Carolina
27603,Chicago,North Carolina
27603,Colonial Heights,North Carolina
27603,Cornelius,North Carolina
27603,Dunn,North Carolina
27603,Durham,North Carolina
27603,Fayetteville,North Carolina
27603,Goldsboro,North Carolina
27603,Henderson,North Carolina
27603,Knightdale,North Carolina
27603,Pink Hill,North Carolina
27603,Raleigh,North Carolina
27603,Smithfield,North Carolina
27603,Wilmington,North Carolina
27603,Winston-Salem,North Carolina
27603,null,North Carolina
27604,Adelaide,North Carolina
27604,Apex,North Carolina
27604,Arlington Heights,North Carolina
27604,Atlanta,North Carolina
27604,Chapel Hill,North Carolina
27604,Charlotte,North Carolina
27604,Clayton,North Carolina
27604,Durham,North Carolina
27604,Eagle Springs,North Carolina
27604,Elk Grove Village,North Carolina
27604,Fayetteville,North Carolina
27604,Fuquay-Varina,North Carolina
27604,Garner,North Carolina
27604,Goldsboro,North Carolina
27604,Greensboro,North Carolina
27604,Hampstead,North Carolina
27604,Henderson,North Carolina
27604,Kao-sung,North Carolina
27604,Knightdale,North Carolina
27604,Louisville,North Carolina
27604,Middletown,North Carolina
27604,Mugla,North Carolina
27604,Norfolk,North Carolina
27604,Northridge,North Carolina
27604,Pittsboro,North Carolina
27604,Raleigh,North Carolina
27604,Redmond,North Carolina
27604,Rocky Mount,North Carolina
27604,Sanford,North Carolina
27604,Wake Forest,North Carolina
27604,Warsaw,North Carolina
27604,Wilson,North Carolina
27604,Woodbridge,North Carolina
27604,null,North Carolina
27607,Marietta,North Carolina
27607,Raleigh,North Carolina
27610,Cary,North Carolina
27610,Clayton,North Carolina
27610,Durham,North Carolina
27610,Raleigh,North Carolina
27610,Wilson,North Carolina
27610,Winston-Salem,North Carolina
27616,Durham,North Carolina
27616,Fayetteville,North Carolina
27616,Henderson,North Carolina
27616,Raleigh,North Carolina
27617,Asheboro,North Carolina
2767,Brewster,Massachusetts
2767,Fullerton,Massachusetts
2767,Hyannis,Massachusetts
2767,Middleboro,Massachusetts
2767,Redmond,Massachusetts
2767,Taunton,Massachusetts
2767,Waterbury,Massachusetts
2767,null,Massachusetts
27703,Northbridge,North Carolina
27707,Franklin,North Carolina
27707,Garner,North Carolina
27707,null,North Carolina
27804,Wilson,North Carolina
27828,Fremont,North Carolina
27828,Lillington,North Carolina
27834,Asheboro,North Carolina
27834,Greenville,North Carolina
27834,Washington,North Carolina
27834,Wilson,North Carolina
27834,null,North Carolina
27856,Louisburg,North Carolina
27856,Raeford,North Carolina
27856,Raleigh,North Carolina
27856,Rocky Mount,North Carolina
27858,null,North Carolina
27888,Rocky Mount,North Carolina
27893,Elon,North Carolina
27893,Goldsboro,North Carolina
27893,Raleigh,North Carolina
27893,Wilson,North Carolina
27893,Zebulon,North Carolina
27893,null,North Carolina
27932,Fayetteville,North Carolina
27944,Elizabeth City,North Carolina
27944,null,North Carolina
27954,Byron,North Carolina
27954,null,North Carolina
27958,Chesapeake,North Carolina
27958,Elizabeth City,North Carolina
28027,Gastonia,North Carolina
28027,Harrisburg,North Carolina
28027,Little River,North Carolina
28043,Forest City,North Carolina
28043,Goldston,North Carolina
28043,Marietta,North Carolina
28043,Spruce Pine,North Carolina
28043,null,North Carolina
28083,Buffalo,North Carolina
28083,Concord,North Carolina
28083,Kannapolis,North Carolina
28083,Kingsland,North Carolina
28083,null,North Carolina
28092,Huntersville,North Carolina
28092,Lincolnton,North Carolina
28092,Medford,North Carolina
28097,Albemarle,North Carolina
28097,Waynesboro,North Carolina
28105,Charlotte,North Carolina
28105,Durham,North Carolina
28105,Waxhaw,North Carolina
28105,Wingate,North Carolina
28107,Charlotte,North Carolina
28110,Albemarle,North Carolina
28110,Ashland,North Carolina
28110,Charlotte,North Carolina
28110,Indian Trail,North Carolina
28110,Kannapolis,North Carolina
28110,Lindenhurst,North Carolina
28110,Monroe,North Carolina
28110,Sylva,North Carolina
28110,Wadesboro,North Carolina
28110,Winston-Salem,North Carolina
28110,null,North Carolina
28115,Charlotte,North Carolina
28115,Clemmons,North Carolina
28115,North Augusta,North Carolina
28115,null,North Carolina
28117,Huntersville,North Carolina
28117,Mooresville,North Carolina
28117,Waxhaw,North Carolina
28146,Lexington,North Carolina
28146,Salisbury,North Carolina
28150,Shelby,North Carolina
28202,Belgrade,North Carolina
28202,Charlotte,North Carolina
28202,Durham,North Carolina
28205,Moscow,North Carolina
28205,Rostov-on-Don,North Carolina
28212,Charlotte,North Carolina
28212,Concord,North Carolina
28212,Cornelius,North Carolina
28212,Huntersville,North Carolina
28212,Matthews,North Carolina
28212,Mooresboro,North Carolina
28212,Pinnacle,North Carolina
28212,null,North Carolina
28214,Charlotte,North Carolina
28214,Fort Mill,North Carolina
28214,Hampton,North Carolina
28214,Mooresville,North Carolina
28214,Salisbury,North Carolina
28262,Albertville,North Carolina
28273,Charlotte,North Carolina
28273,Durham,North Carolina
28303,Albemarle,North Carolina
28303,Charlotte,North Carolina
28303,Charlottesville,North Carolina
28303,Chester,North Carolina
28303,Fayetteville,North Carolina
28303,Graham,North Carolina
28303,Lillington,North Carolina
28303,Newland,North Carolina
28303,Norwood,North Carolina
28303,Raeford,North Carolina
28303,Roanoke,North Carolina
28303,Rome,North Carolina
28303,Spring Lake,North Carolina
28303,Wilmington,North Carolina
28303,null,North Carolina
28304,Four Oaks,North Carolina
28304,null,North Carolina
28306,Fayetteville,North Carolina
28311,Asheboro,North Carolina
28311,Clayton,North Carolina
28311,Fayetteville,North Carolina
28328,Clinton,North Carolina
28351,Landrum,North Carolina
28358,Charlotte,North Carolina
28358,Eden,North Carolina
28358,Elizabethtown,North Carolina
28358,Ellenwood,North Carolina
28358,Fayetteville,North Carolina
28358,Lumberton,North Carolina
28358,Marietta,North Carolina
28358,Morehead City,North Carolina
28358,Rocky Point,North Carolina
28358,Rougemont,North Carolina
28358,null,North Carolina
28379,Charlotte,North Carolina
28379,Salisbury,North Carolina
28387,Sanford,North Carolina
28394,null,North Carolina
28401,Burgaw,North Carolina
28401,Greensboro,North Carolina
28401,Highlands,North Carolina
28401,Kelly,North Carolina
28401,Leland,North Carolina
28401,Morehead City,North Carolina
28401,Wilmington,North Carolina
28401,null,North Carolina
28403,Supply,North Carolina
28405,null,North Carolina
28412,Buford,North Carolina
28412,Carolina Beach,North Carolina
28412,Columbia,North Carolina
28412,Hampstead,North Carolina
28412,Hope Mills,North Carolina
28412,Kelly,North Carolina
28412,Leland,North Carolina
28412,Longs,North Carolina
28412,Sanford,North Carolina
28412,Shallotte,North Carolina
28412,Southport,North Carolina
28412,Wilmington,North Carolina
28412,null,North Carolina
28461,Beaufort,North Carolina
28461,Bolivia,North Carolina
28461,Conway,North Carolina
28461,Durham,North Carolina
28461,Jacksonville,North Carolina
28461,Myrtle Beach,North Carolina
28461,Pune,North Carolina
28461,Raleigh,North Carolina
28461,Sumter,North Carolina
28461,Supply,North Carolina
28461,Wilmington,North Carolina
28461,Zelienople,North Carolina
28461,null,North Carolina
28470,null,North Carolina
28479,Southport,North Carolina
28479,null,North Carolina
28540,Benson,North Carolina
28540,Havelock,North Carolina
28540,Jacksonville,North Carolina
28540,Morehead City,North Carolina
28540,Springfield Township,North Carolina
28540,Swansboro,North Carolina
28540,Wilmington,North Carolina
28540,null,North Carolina
28546,Brooklyn,North Carolina
28546,Raleigh,North Carolina
28557,Newport,North Carolina
28557,Wilmington,North Carolina
28557,null,North Carolina
28562,Morehead City,North Carolina
28562,New Bern,North Carolina
28562,null,North Carolina
28570,Beaufort,North Carolina
28574,Clayton,North Carolina
28574,Kenly,North Carolina
28578,Goldsboro,North Carolina
28578,Greenville,North Carolina
28601,Aldie,North Carolina
28601,Belmont,North Carolina
28601,Boone,North Carolina
28601,Charlotte,North Carolina
28601,Denver,North Carolina
28601,Fayetteville,North Carolina
28601,Hickory,North Carolina
28601,Hudson,North Carolina
28601,Lansing,North Carolina
28601,Lenoir,North Carolina
28601,Statesville,North Carolina
28601,Tuxedo,North Carolina
28601,null,North Carolina
28602,Greenville,North Carolina
28602,Hickory,North Carolina
28602,Linden,North Carolina
28602,Palmyra,North Carolina
28602,Sanford,North Carolina
28625,Matthews,North Carolina
28645,Bristol,North Carolina
28645,Clayton,North Carolina
28645,Holly Springs,North Carolina
28645,Wilkesboro,North Carolina
28645,null,North Carolina
28677,Chicago,North Carolina
28677,Fort Mill,North Carolina
28677,Salisbury,North Carolina
28677,Statesville,North Carolina
28677,null,North Carolina
28690,Banner Elk,North Carolina
28690,null,North Carolina
28711,Candler,North Carolina
28717,Baltimore,North Carolina
28717,Bethesda,North Carolina
28717,Columbia,North Carolina
28717,Decatur,North Carolina
28717,Hamilton,North Carolina
28717,Phoenix,North Carolina
28717,Reading,North Carolina
28717,Spartanburg,North Carolina
28730,Fairview,North Carolina
28730,Fredericksburg,North Carolina
28731,Hendersonville,North Carolina
28734,Newport News,North Carolina
28739,Hendersonville,North Carolina
28752,Charlotte,North Carolina
28752,Connelly Springs,North Carolina
28752,Forest City,North Carolina
28752,Gastonia,North Carolina
28752,Hickory,North Carolina
28752,Marion,North Carolina
28752,Marshall,North Carolina
28752,Raleigh,North Carolina
28752,Spruce Pine,North Carolina
28752,null,North Carolina
28791,Butler,North Carolina
28791,Douglasville,North Carolina
28791,Fletcher,North Carolina
28791,Franklin,North Carolina
28791,Greenville,North Carolina
28791,Marietta,North Carolina
28791,Mills River,North Carolina
28791,Mission,North Carolina
28791,Richmond,North Carolina
28791,Roswell,North Carolina
28791,Sacramento,North Carolina
28791,Spartanburg,North Carolina
28791,Weaverville,North Carolina
28791,null,North Carolina
28792,Brevard,North Carolina
28792,Brighton,North Carolina
28792,Candler,North Carolina
28792,Hendersonville,North Carolina
28792,Medford,North Carolina
28792,null,North Carolina
28806,Alsip,North Carolina
28806,Angier,North Carolina
28806,Arden,North Carolina
28806,Asheville,North Carolina
28806,Auburn,North Carolina
28806,Benton,North Carolina
28806,Burnsville,North Carolina
28806,Candler,North Carolina
28806,Canton,North Carolina
28806,Charlotte,North Carolina
28806,Clyde,North Carolina
28806,Dawsonville,North Carolina
28806,Duluth,North Carolina
28806,Easley,North Carolina
28806,Franklin,North Carolina
28806,Granite Falls,North Carolina
28806,Greenville,North Carolina
28806,Hays,North Carolina
28806,Hendersonville,North Carolina
28806,Johnson City,North Carolina
28806,Kingsport,North Carolina
28806,Lansing,North Carolina
28806,Marion,North Carolina
28806,Mauldin,North Carolina
28806,Medford,North Carolina
28806,Mills River,North Carolina
28806,Moore,North Carolina
28806,Murphy,North Carolina
28806,New York,North Carolina
28806,Oak Ridge,North Carolina
28806,Olney,North Carolina
28806,Orlando,North Carolina
28806,Pittsboro,North Carolina
28806,Seneca,North Carolina
28806,Sylva,North Carolina
28806,Taylorsville,North Carolina
28806,Vancouver,North Carolina
28806,Waynesville,North Carolina
28806,Weaverville,North Carolina
28806,null,North Carolina
28904,Durham,North Carolina
28906,Cleveland,North Carolina
28906,Durham,North Carolina
28906,Ellijay,North Carolina
28906,Franklin,North Carolina
28906,Lithonia,North Carolina
28906,Morganton,North Carolina
28906,Murphy,North Carolina
28906,Waynesville,North Carolina
28906,null,North Carolina
29016,Blythewood,South Carolina
29016,Columbia,South Carolina
29016,Myrtle Beach,South Carolina
29016,null,South Carolina
29045,Columbia,South Carolina
29045,Irmo,South Carolina
29045,Kernersville,South Carolina
29045,Marietta,South Carolina
29045,Pittsboro,South Carolina
29045,Sumter,South Carolina
29053,Chapin,South Carolina
29053,Charlotte,South Carolina
29053,Columbia,South Carolina
29053,Fayetteville,South Carolina
29053,Florence,South Carolina
29053,Fort Huachuaca,South Carolina
29053,Lexington,South Carolina
29053,Marietta,South Carolina
29053,New York,South Carolina
29053,Summerville,South Carolina
29053,Winnsboro,South Carolina
29053,null,South Carolina
29067,Indian Trail,South Carolina
29067,Lancaster,South Carolina
29067,Sumter,South Carolina
29067,null,South Carolina
29072,null,South Carolina
29073,Columbia,South Carolina
29078,Columbia,South Carolina
29078,Winnsboro,South Carolina
29108,Fort Mill,South Carolina
29150,Durham,South Carolina
29150,Hartsville,South Carolina
29150,Kannapolis,South Carolina
29150,Sumter,South Carolina
29150,West Columbia,South Carolina
29150,null,South Carolina
29169,Mooresville,South Carolina
29169,Mullins,South Carolina
29170,Chapin,South Carolina
29170,Charlotte,South Carolina
29170,Columbia,South Carolina
29170,Covington,South Carolina
29170,Cupertino,South Carolina
29170,Darlington,South Carolina
29170,Ellenwood,South Carolina
29170,Fayetteville,South Carolina
29170,Gastonia,South Carolina
29170,Ladson,South Carolina
29170,Leesville,South Carolina
29170,Lexington,South Carolina
29170,Little River,South Carolina
29170,Louisville,South Carolina
29170,Marietta,South Carolina
29170,Newberry,South Carolina
29170,Ridgeway,South Carolina
29170,West Columbia,South Carolina
29170,null,South Carolina
29204,Kingsport,South Carolina
29205,Columbia,South Carolina
29229,Columbia,South Carolina
29301,Inman,South Carolina
29301,Lexington,South Carolina
29301,Redmond,South Carolina
29301,Simpsonville,South Carolina
29301,Spartanburg,South Carolina
29301,Travelers Rest,South Carolina
29301,null,South Carolina
29302,null,South Carolina
29316,Atlanta,South Carolina
29316,Buford,South Carolina
29316,Greer,South Carolina
29316,Spartanburg,South Carolina
29316,Sumter,South Carolina
29316,null,South Carolina
29325,Abbeville,South Carolina
29325,Union,South Carolina
29340,null,South Carolina
29369,Spartanburg,South Carolina
29376,Asheville,South Carolina
29376,Boiling Springs,South Carolina
29376,Greenville,South Carolina
29376,Seneca,South Carolina
29376,Spartanburg,South Carolina
29376,null,South Carolina
29405,Durban,South Carolina
29407,Andrews,South Carolina
29407,Bluffton,South Carolina
29407,Charleston,South Carolina
29407,Dorchester,South Carolina
29407,Ellenwood,South Carolina
29407,Goose Creek,South Carolina
29407,Grand Rapids,South Carolina
29407,Johns Island,South Carolina
29407,Richmond,South Carolina
29407,Summerville,South Carolina
29407,null,South Carolina
29418,Bluffton,South Carolina
29418,Charleston,South Carolina
29418,Charlotte,South Carolina
29418,Columbia,South Carolina
29418,Cottageville,South Carolina
29418,Johns Island,South Carolina
29418,Mt. Pleasant,South Carolina
29418,Myrtle Beach,South Carolina
29418,North Charleston,South Carolina
29418,Round O,South Carolina
29418,Summerville,South Carolina
29418,Washington,South Carolina
29418,null,South Carolina
29435,Coats,South Carolina
29435,Johnsonville,South Carolina
29435,Walterboro,South Carolina
29435,null,South Carolina
29445,Brooklyn,South Carolina
29445,null,South Carolina
29456,Charleston,South Carolina
29456,Charlotte,South Carolina
29456,Goose Creek,South Carolina
29456,Johns Island,South Carolina
29456,Knightdale,South Carolina
29456,Miami,South Carolina
29456,Moncks Corner,South Carolina
29456,North Charleston,South Carolina
29456,Summerville,South Carolina
29456,null,South Carolina
29461,Charleston,South Carolina
29461,Moncks Corner,South Carolina
29461,Summerville,South Carolina
29461,Winnsboro,South Carolina
29483,Goose Creek,South Carolina
29483,Summerville,South Carolina
29483,Sumter,South Carolina
29483,null,South Carolina
29501,Charlotte,South Carolina
29501,Elgin,South Carolina
29501,Kingstree,South Carolina
29501,Lexington,South Carolina
29505,Charlotte,South Carolina
29505,null,South Carolina
29506,null,South Carolina
29512,Charlotte,South Carolina
29512,Dillon,South Carolina
29526,Berkeley,South Carolina
29526,Charlotte,South Carolina
29526,Chattanooga,South Carolina
29526,Columbia,South Carolina
29526,Conway,South Carolina
29526,Florence,South Carolina
29526,Georgetown,South Carolina
29526,Goldsboro,South Carolina
29526,Greenville,South Carolina
29526,Irmo,South Carolina
29526,Little River,South Carolina
29526,Longs,South Carolina
29526,Loris,South Carolina
29526,Marietta,South Carolina
29526,Marion,South Carolina
29526,Murrells Inlet,South Carolina
29526,Myrtle Beach,South Carolina
29526,Newark,South Carolina
29526,North Myrtle Beach,South Carolina
29526,Orangeburg,South Carolina
29526,Panama City,South Carolina
29526,Pawleys Island,South Carolina
29526,Raleigh,South Carolina
29526,Roseville,South Carolina
29526,Ruffin,South Carolina
29526,Sumter,South Carolina
29526,Wendell,South Carolina
29526,West Columbia,South Carolina
29526,Wilmington,South Carolina
29526,Wilson,South Carolina
29526,null,South Carolina
29536,Bennettsville,South Carolina
29536,Myrtle Beach,South Carolina
29536,Redmond,South Carolina
29536,null,South Carolina
29550,null,South Carolina
29566,Charlotte,South Carolina
29566,Longs,South Carolina
29566,Myrtle Beach,South Carolina
29566,North Myrtle Beach,South Carolina
29566,Ocean Isle Beach,South Carolina
29566,null,South Carolina
29570,Gaston,South Carolina
29577,Blythewood,South Carolina
29577,Little River,South Carolina
29577,Moncks Corner,South Carolina
29577,Myrtle Beach,South Carolina
29577,Schuyler,South Carolina
29577,Stone Mountain,South Carolina
29577,null,South Carolina
29588,Myrtle Beach,South Carolina
29607,Asheville,South Carolina
29607,Augusta,South Carolina
29607,Charlotte,South Carolina
29607,Greenville,South Carolina
29607,Greer,South Carolina
29607,Hendersonville,South Carolina
29607,Kill Devil Hills,South Carolina
29607,Mauldin,South Carolina
29607,Piedmont,South Carolina
29607,Rochester,South Carolina
29607,Simpsonville,South Carolina
29607,Spartanburg,South Carolina
29607,null,South Carolina
29609,Arden,South Carolina
29609,Asheville,South Carolina
29609,Atlanta,South Carolina
29609,Benton,South Carolina
29609,Bluff City,South Carolina
29609,Boiling Springs,South Carolina
29609,Burlington,South Carolina
29609,Calabash,South Carolina
29609,Canton,South Carolina
29609,Central,South Carolina
29609,Chapin,South Carolina
29609,Charlotte,South Carolina
29609,Chattanooga,South Carolina
29609,Columbia,South Carolina
29609,Conover,South Carolina
29609,Duluth,South Carolina
29609,Easley,South Carolina
29609,Evans,South Carolina
29609,Gaffney,South Carolina
29609,Granite Falls,South Carolina
29609,Greenville,South Carolina
29609,Hendersonville,South Carolina
29609,Hermitage,South Carolina
29609,High Point,South Carolina
29609,Jefferson,South Carolina
29609,Laconia,South Carolina
29609,Monroe,South Carolina
29609,Morristown,South Carolina
29609,Mount Airy,South Carolina
29609,Pineville,South Carolina
29609,Seneca,South Carolina
29609,Simpsonville,South Carolina
29609,Spartanburg,South Carolina
29609,Washington,South Carolina
29609,Weaverville,South Carolina
29609,Winnsboro,South Carolina
29609,null,South Carolina
29611,Byron,South Carolina
29611,Charlotte,South Carolina
29611,Covington,South Carolina
29611,Greenville,South Carolina
29611,Medellín,South Carolina
29611,Pickens,South Carolina
29611,St Louis,South Carolina
29611,Williamston,South Carolina
29611,null,South Carolina
29620,Calhoun Falls,South Carolina
29620,Donalds,South Carolina
29620,Greenwood,South Carolina
29620,Hialeah,South Carolina
29620,Princeton,South Carolina
29624,Norwood,South Carolina
29645,Anderson,South Carolina
29645,Asheville,South Carolina
29645,Belton,South Carolina
29645,Dunn,South Carolina
29645,Enoree,South Carolina
29645,Fort Bragg,South Carolina
29645,Fort Mill,South Carolina
29645,Fountain Inn,South Carolina
29645,Gray Court,South Carolina
29645,Greenville,South Carolina
29645,Hendersonville,South Carolina
29645,Laurens,South Carolina
29645,Louisville,South Carolina
29645,Lyman,South Carolina
29645,Moscow,South Carolina
29645,Pelzer,South Carolina
29645,Piedmont,South Carolina
29645,Simpsonville,South Carolina
29645,Union,South Carolina
29645,Ware Shoals,South Carolina
29645,Youngsville,South Carolina
29645,null,South Carolina
29649,Clinton,South Carolina
29649,Gastonia,South Carolina
29649,Gray Court,South Carolina
29649,Greenwood,South Carolina
29649,Laurens,South Carolina
29649,Richlands,South Carolina
29649,Southern Pines,South Carolina
29649,Spring Lake,South Carolina
29649,Wilson,South Carolina
29649,null,South Carolina
29651,Atlanta,South Carolina
29651,Charlotte,South Carolina
29651,Clemson,South Carolina
29651,Denver,South Carolina
29651,Ellenwood,South Carolina
29651,Greenville,South Carolina
29651,Greer,South Carolina
29651,Harlan,South Carolina
29651,Jefferson,South Carolina
29651,Knoxville,South Carolina
29651,Lyman,South Carolina
29651,Maiden,South Carolina
29651,Orangeburg,South Carolina
29651,Rutherfordton,South Carolina
29651,Spartanburg,South Carolina
29651,Taylors,South Carolina
29651,null,South Carolina
29671,Belgrade,South Carolina
29678,Seneca,South Carolina
29687,Inman,South Carolina
29715,Clover,South Carolina
29715,Plymouth,South Carolina
29720,Charlotte,South Carolina
29720,Clover,South Carolina
29720,Durham,South Carolina
29720,Jefferson City,South Carolina
29720,Lancaster,South Carolina
29720,Lenoir,South Carolina
29720,Louisville,South Carolina
29720,Tarboro,South Carolina
29720,Van Wyck,South Carolina
29720,null,South Carolina
29728,Brooklyn,South Carolina
29728,Charlotte,South Carolina
29728,Chesterfield,South Carolina
29728,Jefferson,South Carolina
29728,Lancaster,South Carolina
29728,Matthews,South Carolina
29728,Patrick,South Carolina
29728,Rock Hill,South Carolina
29728,null,South Carolina
29729,Fort Mill,South Carolina
29729,Great Falls,South Carolina
29729,Huntersville,South Carolina
29729,Johns Island,South Carolina
29729,Mt. Pleasant,South Carolina
29729,Rockingham,South Carolina
29729,null,South Carolina
29730,Anderson,South Carolina
29730,Augusta,South Carolina
29730,Charlotte,South Carolina
29730,Chester,South Carolina
29730,Clifton Heights,South Carolina
29730,Columbia,South Carolina
29730,Concord,South Carolina
29730,Denver,South Carolina
29730,Durham,South Carolina
29730,Ellenwood,South Carolina
29730,Fort Mill,South Carolina
29730,Goose Creek,South Carolina
29730,Greenwood,South Carolina
29730,Hampstead,South Carolina
29730,Lancaster,South Carolina
29730,Marietta,South Carolina
29730,Matthews,South Carolina
29730,Moscow,South Carolina
29730,Pineville,South Carolina
29730,Raleigh,South Carolina
29730,Rock Hill,South Carolina
29730,Shelby,South Carolina
29730,Sylva,South Carolina
29730,Van Wyck,South Carolina
29730,Waxhaw,South Carolina
29730,null,South Carolina
29731,Rock Hill,South Carolina
29732,Albemarle,South Carolina
29732,Asheville,South Carolina
29732,Ashland,South Carolina
29732,Belgrade,South Carolina
29732,Cary,South Carolina
29732,Charlotte,South Carolina
29732,Christiansburg,South Carolina
29732,Columbia,South Carolina
29732,Gaffney,South Carolina
29732,Klin,South Carolina
29732,Lawrenceville,South Carolina
29732,Mauldin,South Carolina
29732,Medford,South Carolina
29732,Moscow,South Carolina
29732,Rock Hill,South Carolina
29732,Saint Petersburg,South Carolina
29732,Salisbury,South Carolina
29732,Toronto,South Carolina
29732,Van Wyck,South Carolina
29732,Waxhaw,South Carolina
29732,Winston-Salem,South Carolina
29732,York,South Carolina
29732,null,South Carolina
29801,Aiken,South Carolina
29801,Columbia,South Carolina
29801,null,South Carolina
29803,Aiken,South Carolina
29803,Augusta,South Carolina
29803,Conyers,South Carolina
29803,Edgefield,South Carolina
29803,Grovetown,South Carolina
29803,North Augusta,South Carolina
29803,Orangeburg,South Carolina
29803,Swansea,South Carolina
29803,Warner Robins,South Carolina
29803,null,South Carolina
29829,Aiken,South Carolina
29829,Augusta,South Carolina
29829,Memphis,South Carolina
29829,North Augusta,South Carolina
29829,Potomac,South Carolina
29841,Charlotte,South Carolina
29841,Evans,South Carolina
29841,null,South Carolina
30009,Alpharetta,Georgia
30009,Phenix City,Georgia
30009,Trenton,Georgia
30014,Cedar Rapids,Georgia
30014,Conyers,Georgia
30014,Covington,Georgia
30014,Monticello,Georgia
30014,null,Georgia
30016,Athens,Georgia
30016,Chicago,Georgia
30016,Covington,Georgia
30016,Cumming,Georgia
30016,Lithonia,Georgia
30016,Locust Grove,Georgia
30016,McDonough,Georgia
30016,Roswell,Georgia
30016,Smyrna,Georgia
30016,Snellville,Georgia
30016,Stone Mountain,Georgia
30016,Wayne,Georgia
30016,null,Georgia
30024,Alpharetta,Georgia
30024,Atlanta,Georgia
30024,Chattanooga,Georgia
30024,Decatur,Georgia
30024,Duluth,Georgia
30024,Grayson,Georgia
30024,Houston,Georgia
30024,Kingsport,Georgia
30024,Knoxville,Georgia
30024,Pell City,Georgia
30024,Stone Mountain,Georgia
30024,null,Georgia
30035,Atlanta,Georgia
30035,Decatur,Georgia
30035,Hartwell,Georgia
30035,Norcross,Georgia
30035,Powder Springs,Georgia
30035,Riverdale,Georgia
30035,null,Georgia
30039,Snellville,Georgia
30040,Atlanta,Georgia
30040,Ball Ground,Georgia
30040,Commerce,Georgia
30040,Cumming,Georgia
30040,Dalton,Georgia
30040,Ellenwood,Georgia
30040,Franklin,Georgia
30040,Lawrenceville,Georgia
30040,Lithia Springs,Georgia
30040,Loganville,Georgia
30040,Mahwah,Georgia
30040,Marietta,Georgia
30040,Minooka,Georgia
30040,Riverdale,Georgia
30040,Stone Mountain,Georgia
30040,Suwanee,Georgia
30040,null,Georgia
30043,Lawrenceville,Georgia
30044,null,Georgia
30046,Atlanta,Georgia
30046,Cary,Georgia
30046,Cleveland,Georgia
30046,Duluth,Georgia
30046,Ellenwood,Georgia
30046,Lawrenceville,Georgia
30046,Lilburn,Georgia
30046,Long Island City,Georgia
30046,Morrow,Georgia
30046,Moultrie,Georgia
30046,Newnan,Georgia
30046,Norman Park,Georgia
30046,Old Fort,Georgia
30046,Omaha,Georgia
30046,Smyrna,Georgia
30046,Watkinsville,Georgia
30046,Weaverville,Georgia
30046,null,Georgia
30047,Clemson,Georgia
30047,Loganville,Georgia
30047,Seneca,Georgia
30052,Alpharetta,Georgia
30052,Greenwood,Georgia
30052,Miami,Georgia
30052,null,Georgia
30055,Athens,Georgia
30055,Birmingham,Georgia
30055,Griffin,Georgia
30055,McDonough,Georgia
30055,Monticello,Georgia
30055,Moultrie,Georgia
30055,Snellville,Georgia
30055,Woodville,Georgia
30055,null,Georgia
30060,Athens,Georgia
30060,Atlanta,Georgia
30060,Bethesda,Georgia
30060,Calhoun,Georgia
30060,Chickamauga,Georgia
30060,Clemmons,Georgia
30060,Cleveland,Georgia
30060,Covington,Georgia
30060,Cumming,Georgia
30060,Dallas,Georgia
30060,East Brunswick,Georgia
30060,Forsyth,Georgia
30060,Franklin,Georgia
30060,Jamestown,Georgia
30060,Jersey City,Georgia
30060,Kathleen,Georgia
30060,Layton,Georgia
30060,Lilburn,Georgia
30060,Lithia Springs,Georgia
30060,Marietta,Georgia
30060,Newark,Georgia
30060,Newnan,Georgia
30060,Powder Springs,Georgia
30060,Raleigh,Georgia
30060,Roswell,Georgia
30060,Saint Petersburg,Georgia
30060,Secaucus,Georgia
30060,Snellville,Georgia
30060,Tucker,Georgia
30060,Umatilla,Georgia
30060,Union City,Georgia
30060,Woodstock,Georgia
30060,null,Georgia
30064,Mableton,Georgia
30064,Pittsburgh,Georgia
30066,Atlanta,Georgia
30066,Covington,Georgia
30066,Dallas,Georgia
30066,Decatur,Georgia
30066,Lawrenceville,Georgia
30066,Marietta,Georgia
30066,Powder Springs,Georgia
30066,Stone Mountain,Georgia
30066,null,Georgia
30067,Fayetteville,Georgia
30067,Marietta,Georgia
30071,Atlanta,Georgia
30071,Duluth,Georgia
30071,Ellenwood,Georgia
30071,Kennesaw,Georgia
30071,Lawrenceville,Georgia
30071,Warner Robins,Georgia
30071,null,Georgia
30075,Atlanta,Georgia
30075,Calhoun,Georgia
30075,Canton,Georgia
30075,Charleston,Georgia
30075,Chattanooga,Georgia
30075,Clemson,Georgia
30075,Covington,Georgia
30075,Cumming,Georgia
30075,Dacula,Georgia
30075,Decatur,Georgia
30075,Douglasville,Georgia
30075,Dublin,Georgia
30075,Glenview,Georgia
30075,Jasper,Georgia
30075,Jonesboro,Georgia
30075,Lawrenceville,Georgia
30075,Lithonia,Georgia
30075,Marietta,Georgia
30075,Newnan,Georgia
30075,Oak Hill,Georgia
30075,Pell City,Georgia
30075,Powder Springs,Georgia
30075,Snellville,Georgia
30075,St Louis,Georgia
30075,Stone Mountain,Georgia
30075,Tarboro,Georgia
30075,Wilson,Georgia
30075,Woburn,Georgia
30075,null,Georgia
30076,Atlanta,Georgia
30076,Cumming,Georgia
30076,Dallas,Georgia
30076,Fairburn,Georgia
30076,Gwinner,Georgia
30076,Stone Mountain,Georgia
30080,Atlanta,Georgia
30080,Carrollton,Georgia
30080,Myrtle Beach,Georgia
30080,Pompano Beach,Georgia
30080,Suwanee,Georgia
30080,null,Georgia
30084,Atlanta,Georgia
30084,Dacula,Georgia
30084,Lawrenceville,Georgia
30084,Lithia Springs,Georgia
30084,Loganville,Georgia
30084,Stone Mountain,Georgia
30088,Lawrenceville,Georgia
30092,Marietta,Georgia
30092,Moorhead,Georgia
30092,null,Georgia
30093,Alpharetta,Georgia
30093,Buford,Georgia
30093,Cleveland,Georgia
30093,Duluth,Georgia
30093,Helsinki,Georgia
30093,Lawrenceville,Georgia
30093,McDonough,Georgia
30093,Norwood Young America,Georgia
30093,Riverdale,Georgia
30093,Stone Mountain,Georgia
30093,Tuscaloosa,Georgia
30093,null,Georgia
30096,Alpharetta,Georgia
30096,Atlanta,Georgia
30096,Buford,Georgia
30096,Covington,Georgia
30096,Gastonia,Georgia
30096,Georgetown,Georgia
30096,Lawrenceville,Georgia
30096,McDonough,Georgia
30096,Ringgold,Georgia
30096,null,Georgia
30097,Atlanta,Georgia
30097,Duluth,Georgia
30097,Grayson,Georgia
30097,Lawrenceville,Georgia
30097,Tampa,Georgia
30097,Tempe,Georgia
30097,null,Georgia
30110,Acworth,Georgia
30110,Atlanta,Georgia
30110,Bremen,Georgia
30110,Brilliant,Georgia
30110,Carrollton,Georgia
30110,Indiana,Georgia
30110,Madison,Georgia
30110,Mission,Georgia
30110,Rome,Georgia
30110,Villa Rica,Georgia
30110,null,Georgia
30114,Atlanta,Georgia
30114,San Bruno,Georgia
30114,null,Georgia
30115,Aiken,Georgia
30115,Asheville,Georgia
30115,Braintree,Georgia
30115,Braselton,Georgia
30115,Charlotte,Georgia
30115,Cleveland,Georgia
30115,Cumming,Georgia
30115,Denham Springs,Georgia
30115,Denver,Georgia
30115,Guadalupe,Georgia
30115,Jasper,Georgia
30115,Knoxville,Georgia
30115,Lakeview,Georgia
30115,Madison,Georgia
30115,Six Mile,Georgia
30115,Spring,Georgia
30115,St. Augustine,Georgia
30115,Tampa,Georgia
30115,Trenton,Georgia
30115,Westminster,Georgia
30117,Duluth,Georgia
30117,Louisville,Georgia
30120,Acworth,Georgia
30120,Atlanta,Georgia
30120,Cartersville,Georgia
30120,Rockmart,Georgia
30120,Woodstock,Georgia
30120,null,Georgia
30121,Atlanta,Georgia
30121,Rome,Georgia
30122,Atlanta,Georgia
30122,Decatur,Georgia
30122,Douglasville,Georgia
30122,null,Georgia
30126,Atlanta,Georgia
30126,Byron,Georgia
30126,Douglasville,Georgia
30126,Jonesboro,Georgia
30126,Marietta,Georgia
30126,Roswell,Georgia
30126,null,Georgia
30134,Atlanta,Georgia
30134,Douglasville,Georgia
30134,Lithia Springs,Georgia
30134,Louisville,Georgia
30134,Palmetto,Georgia
30134,Powder Springs,Georgia
30135,Augusta,Georgia
30135,Austell,Georgia
30135,Carrollton,Georgia
30135,Douglasville,Georgia
30135,Gadsden,Georgia
30135,Lancaster,Georgia
30135,Lawrenceville,Georgia
30135,Lexington,Georgia
30135,Loganville,Georgia
30135,Mableton,Georgia
30135,Mission,Georgia
30135,Sharpsburg,Georgia
30135,Thomaston,Georgia
30135,null,Georgia
30141,Cartersville,Georgia
30141,Macon,Georgia
30141,McDonough,Georgia
30161,Calhoun,Georgia
30161,Dallas,Georgia
30161,null,Georgia
30165,Greenville,Georgia
30165,Rome,Georgia
30168,Cartersville,Georgia
30168,Douglasville,Georgia
30168,Greensboro,Georgia
30168,Marietta,Georgia
30168,null,Georgia
30188,Dalton,Georgia
30188,Dawsonville,Georgia
30188,Fayetteville,Georgia
30188,Gainesville,Georgia
30188,Kennesaw,Georgia
30188,Stone Mountain,Georgia
30188,Woodstock,Georgia
30188,null,Georgia
30213,Opelika,Georgia
30220,Griffin,Georgia
30220,Stone Mountain,Georgia
30220,Zebulon,Georgia
30220,null,Georgia
30223,Atlanta,Georgia
30223,Columbus,Georgia
30223,Griffin,Georgia
30223,Hampton,Georgia
30223,Jackson,Georgia
30223,McDonough,Georgia
30223,Riverdale,Georgia
30223,Sarasota,Georgia
30223,Stone Mountain,Georgia
30223,null,Georgia
30224,Atlanta,Georgia
30224,Cumming,Georgia
30224,Griffin,Georgia
30233,Griffin,Georgia
30233,Roswell,Georgia
30233,null,Georgia
30234,Atlanta,Georgia
30234,Covington,Georgia
30234,null,Georgia
30236,Belgrade,Georgia
30236,Marietta,Georgia
30236,McDonough,Georgia
30248,Bonaire,Georgia
30248,Cedar Rapids,Georgia
30248,Fayetteville,Georgia
30248,Greenville,Georgia
30248,Hogansville,Georgia
30248,Irving,Georgia
30248,Marietta,Georgia
30248,Memphis,Georgia
30248,Peachtree City,Georgia
30248,Powder Springs,Georgia
30248,Riverdale,Georgia
30248,Sharpsburg,Georgia
30248,null,Georgia
30253,Atlanta,Georgia
30253,McDonough,Georgia
30253,Stockbridge,Georgia
30253,null,Georgia
30263,Butler,Georgia
30263,Fairburn,Georgia
30263,Newnan,Georgia
30263,Riverdale,Georgia
30263,Washington,Georgia
30265,Newnan,Georgia
30271,Newnan,Georgia
30281,Brooklyn,Georgia
30281,Jonesboro,Georgia
30281,Macon,Georgia
30281,Madison,Georgia
30281,Morrow,Georgia
30281,Newnan,Georgia
30281,null,Georgia
30297,Forest Park,Georgia
30297,null,Georgia
30319,Atlanta,Georgia
30319,Cleveland,Georgia
30319,Duluth,Georgia
30319,Marietta,Georgia
30319,null,Georgia
30337,Antioch,Georgia
30337,Atlanta,Georgia
30337,Gatlinburg,Georgia
30337,San Jose,Georgia
30337,Winston-Salem,Georgia
30337,null,Georgia
30341,Brooklyn,Georgia
30341,Fayetteville,Georgia
30341,Jonesboro,Georgia
30341,Louisville,Georgia
30341,New Albany,Georgia
30341,Prospect,Georgia
30341,San Salvador,Georgia
30342,Tampa,Georgia
30360,Atlanta,Georgia
30360,Austell,Georgia
30360,Bay Shore,Georgia
30360,Conyers,Georgia
30360,Cumming,Georgia
30360,Douglasville,Georgia
30360,Fredericksburg,Georgia
30360,Goldsboro,Georgia
30360,Greer,Georgia
30360,Hampton,Georgia
30360,Irving,Georgia
30360,Jonesboro,Georgia
30360,Kennesaw,Georgia
30360,La Grange,Georgia
30360,Lawrenceville,Georgia
30360,Lincolnton,Georgia
30360,Montgomery,Georgia
30360,Mountain View,Georgia
30360,Pacific Palisades,Georgia
30360,Palm Beach Gardens,Georgia
30360,Raleigh,Georgia
30360,Washington,Georgia
30360,Wheeling,Georgia
30360,null,Georgia
30434,Elk Grove Village,Georgia
30434,Evans,Georgia
30434,North Augusta,Georgia
30434,Statesboro,Georgia
30434,Swainsboro,Georgia
30458,Hanceville,Georgia
30458,Hinesville,Georgia
30458,Statesboro,Georgia
30458,Waynesboro,Georgia
30458,null,Georgia
30474,Fitzgerald,Georgia
30474,North Augusta,Georgia
30474,Ocilla,Georgia
30474,Savannah,Georgia
30474,null,Georgia
30501,Athens,Georgia
30501,Gainesville,Georgia
30501,Philadelphia,Georgia
30501,null,Georgia
30504,null,Georgia
3051,Sabattus,New Hampshire
3051,South Paris,New Hampshire
3051,Westbrook,New Hampshire
3051,null,New Hampshire
30511,Columbus,Georgia
30512,Asheville,Georgia
30512,Commerce,Georgia
30512,Dahlonega,Georgia
30512,Jefferson,Georgia
30512,null,Georgia
30513,Blue Ridge,Georgia
30513,Franklin,Georgia
30513,Soddy-Daisy,Georgia
30528,Fairburn,Georgia
30531,Cornelia,Georgia
30534,Aberdeen,Georgia
30534,Cumming,Georgia
30540,Albertville,Georgia
30540,Alpharetta,Georgia
30540,Ball Ground,Georgia
30540,Blue Ridge,Georgia
30540,Ellijay,Georgia
30540,Franklin,Georgia
30540,Jasper,Georgia
30540,Jefferson,Georgia
30540,Marietta,Georgia
30542,Alpharetta,Georgia
30542,Athens,Georgia
30542,Atlanta,Georgia
30542,null,Georgia
30577,Toccoa,Georgia
30601,Athens,Georgia
30606,Athens,Georgia
30606,Atlanta,Georgia
30606,Crockett,Georgia
30606,Hartwell,Georgia
30606,Hodgenville,Georgia
30606,Jefferson,Georgia
30606,Lawrenceville,Georgia
30606,Lithonia,Georgia
30606,Verbena,Georgia
30606,Winder,Georgia
30606,null,Georgia
30650,Atlanta,Georgia
30655,Atlanta,Georgia
30655,Enterprise,Georgia
30655,Friendsville,Georgia
30655,McDonough,Georgia
30680,Winder,Georgia
30721,Chattanooga,Georgia
30721,Dalton,Georgia
30721,Dawsonville,Georgia
30721,Hixson,Georgia
30721,Jasper,Georgia
30721,Johnson City,Georgia
30736,Blue Ridge,Georgia
30736,Dayton,Georgia
30736,Rossville,Georgia
30736,Shelbyville,Georgia
30736,Soddy-Daisy,Georgia
30741,Rossville,Georgia
30742,Henryville,Georgia
30742,Hixson,Georgia
30742,Jasper,Georgia
30742,Rome,Georgia
30742,Rossville,Georgia
30742,Soddy-Daisy,Georgia
30742,Westminster,Georgia
30742,null,Georgia
30747,Canton,Georgia
30747,Dalton,Georgia
30747,Jasper,Georgia
30747,Lawrenceville,Georgia
30747,Nashville,Georgia
30747,Perry,Georgia
30747,Rome,Georgia
30747,Summerville,Georgia
30747,null,Georgia
30815,null,Georgia
30824,Aiken,Georgia
30824,Campbell,Georgia
30824,Decatur,Georgia
30824,Eatonton,Georgia
30824,Grovetown,Georgia
30824,Hephzibah,Georgia
30824,Montreal,Georgia
30824,Spartanburg,Georgia
30830,Augusta,Georgia
30830,Waynesboro,Georgia
30830,null,Georgia
30901,Augusta,Georgia
30901,Chicopee,Georgia
30906,Aiken,Georgia
30906,Augusta,Georgia
30906,Byron,Georgia
30906,Evans,Georgia
30906,Louisville,Georgia
30906,Stone Mountain,Georgia
30906,Swainsboro,Georgia
30906,null,Georgia
30907,Absecon,Georgia
30907,Aiken,Georgia
30907,Augusta,Georgia
30907,Charlotte,Georgia
30907,Chesterfield,Georgia
30907,Evans,Georgia
30907,Greenville,Georgia
30907,Grovetown,Georgia
30907,High Point,Georgia
30907,North Augusta,Georgia
30907,Providence,Georgia
30907,San José,Georgia
30907,Stone Mountain,Georgia
30907,Thomasville,Georgia
30907,Thomson,Georgia
30907,null,Georgia
30909,Aiken,Georgia
30909,Augusta,Georgia
30909,Chapin,Georgia
30909,Charlotte,Georgia
30909,Columbia,Georgia
30909,Dallas,Georgia
30909,Evans,Georgia
30909,Grovetown,Georgia
30909,Hephzibah,Georgia
30909,North Augusta,Georgia
30909,Orlando,Georgia
30909,Stone Mountain,Georgia
30909,Waynesboro,Georgia
30909,null,Georgia
31008,Centerville,Georgia
31008,Elizabethtown,Georgia
31008,Hawkinsville,Georgia
31008,Macon,Georgia
31021,West Sacramento,Georgia
31021,null,Georgia
31023,Ambrose,Georgia
31032,Atlanta,Georgia
31032,Fitzgerald,Georgia
31032,Louisville,Georgia
31032,Macon,Georgia
31032,Milledgeville,Georgia
31032,Monticello,Georgia
31032,Smyrna,Georgia
31061,Ashburn,Georgia
31061,Douglas,Georgia
31061,Fitzgerald,Georgia
31061,Lawrenceville,Georgia
31061,Louisville,Georgia
31061,Macon,Georgia
31061,Milledgeville,Georgia
31061,null,Georgia
31069,Douglas,Georgia
31069,Fort Valley,Georgia
31069,Warner Robins,Georgia
31088,Cadwell,Georgia
31088,Cochran,Georgia
31088,Perry,Georgia
31088,Warner Robins,Georgia
31093,Acworth,Georgia
31093,Dahlonega,Georgia
31093,Macon,Georgia
31093,Marietta,Georgia
31093,New Orleans,Georgia
31093,Northbrook,Georgia
31093,Richmond Hill,Georgia
31093,Smyrna,Georgia
31093,Thomasville,Georgia
31093,Warner Robins,Georgia
31093,null,Georgia
31204,Athens,Georgia
31204,Butler,Georgia
31204,Charlotte,Georgia
31204,Commerce,Georgia
31204,Dahlonega,Georgia
31204,Ellenwood,Georgia
31204,Greenville,Georgia
31204,Macon,Georgia
31204,Myrtle Beach,Georgia
31204,Union City,Georgia
31204,null,Georgia
31206,Alpharetta,Georgia
31206,Jackson,Georgia
31206,Lilburn,Georgia
31206,Macon,Georgia
31206,Perry,Georgia
31206,null,Georgia
31216,Byron,Georgia
31216,Hawkinsville,Georgia
31216,Lizella,Georgia
31216,Macon,Georgia
31216,Mammoth Cave,Georgia
31216,Marietta,Georgia
31216,Milledgeville,Georgia
31216,Monticello,Georgia
31216,Moultrie,Georgia
31216,Ts'khinvali,Georgia
31216,Warner Robins,Georgia
31216,null,Georgia
31217,Atlanta,Georgia
31217,Carrollton,Georgia
31217,Ellenwood,Georgia
31217,Hawkinsville,Georgia
31217,Macon,Georgia
31217,Moultrie,Georgia
31217,Warner Robins,Georgia
31217,null,Georgia
31220,Lawrenceville,Georgia
31220,Montgomery,Georgia
31313,Charlotte,Georgia
31313,Fleming,Georgia
31313,Hinesville,Georgia
31313,Savannah,Georgia
31313,null,Georgia
31324,Bismarck,Georgia
31324,Fort Huachuaca,Georgia
31324,Fort Stewart,Georgia
31324,Hinesville,Georgia
31324,La Crosse,Georgia
31324,Oakland,Georgia
31324,Savannah,Georgia
31324,null,Georgia
31405,Louisville,Georgia
31405,null,Georgia
31406,Anderson,Georgia
31406,Ellenwood,Georgia
31406,Mt. Pleasant,Georgia
31406,Richmond Hill,Georgia
31406,Savannah,Georgia
31406,null,Georgia
31407,Bowling Green,Georgia
31407,Chesterfield,Georgia
31407,Ellabell,Georgia
31407,Folkston,Georgia
31407,Hinesville,Georgia
31407,Miami,Georgia
31407,Pooler,Georgia
31407,Redmond,Georgia
31407,Richmond Hill,Georgia
31407,Rincon,Georgia
31407,Savannah,Georgia
31407,Springfield,Georgia
31407,St Louis,Georgia
31407,null,Georgia
31408,Miami,Georgia
31408,Savannah,Georgia
31408,null,Georgia
31419,Independence,Georgia
31419,Kenly,Georgia
31419,Lee's Summit,Georgia
31419,Pooler,Georgia
31419,Savannah,Georgia
31419,Springfield,Georgia
31501,Apopka,Georgia
31501,Athens,Georgia
31501,Fernandina Beach,Georgia
31501,Hortense,Georgia
31501,Jacksonville,Georgia
31501,Moultrie,Georgia
31501,Nahunta,Georgia
31501,Vidalia,Georgia
31501,Waycross,Georgia
31501,null,Georgia
31503,Alma,Georgia
31503,Alpharetta,Georgia
31503,Ashburn,Georgia
31503,Atlanta,Georgia
31503,Baxley,Georgia
31503,Blackshear,Georgia
31503,Brunswick,Georgia
31503,Hazlehurst,Georgia
31503,Jesup,Georgia
31503,Nahunta,Georgia
31503,North Vernon,Georgia
31503,Savannah,Georgia
31503,Valdosta,Georgia
31503,Waycross,Georgia
31503,null,Georgia
31513,Baxley,Georgia
31516,Atlanta,Georgia
31516,Douglas,Georgia
31516,Waycross,Georgia
31516,null,Georgia
31533,Douglas,Georgia
31533,Fitzgerald,Georgia
31533,Lexington,Georgia
31533,Millen,Georgia
31533,Moultrie,Georgia
31533,Newark,Georgia
31533,Norman Park,Georgia
31533,Waycross,Georgia
31533,null,Georgia
31535,Douglas,Georgia
31535,Fitzgerald,Georgia
31535,Norman Park,Georgia
31535,Willacoochee,Georgia
31539,Alma,Georgia
31539,Athens,Georgia
31539,null,Georgia
31545,Marietta,Georgia
31545,Pembroke,Georgia
31545,Potomac,Georgia
31545,Saint Simons Island,Georgia
31545,Savannah,Georgia
31545,null,Georgia
31548,Hoboken,Georgia
31558,City of Saint Marys,Georgia
31558,Kingsland,Georgia
31601,Frankford,Georgia
31601,Lake Park,Georgia
31601,Pensacola,Georgia
31601,Quitman,Georgia
31601,Valdosta,Georgia
31601,null,Georgia
31602,Altamonte Springs,Georgia
31602,Lincoln,Georgia
31602,Thomasville,Georgia
31602,Valdosta,Georgia
31701,Albany,Georgia
31701,Valdosta,Georgia
31701,null,Georgia
31705,Albany,Georgia
31705,Leesburg,Georgia
31705,Selbyville,Georgia
31705,null,Georgia
31707,Albany,Georgia
31709,null,Georgia
31757,Nicholasville,Georgia
31788,Dubuque,Georgia
31788,Granville,Georgia
31788,Moultrie,Georgia
31788,Thomasville,Georgia
31788,Tifton,Georgia
31788,null,Georgia
31792,Thomasville,Georgia
31794,Albany,Georgia
31794,Moultrie,Georgia
31794,Nashville,Georgia
31794,Stone Mountain,Georgia
31794,Tifton,Georgia
31794,null,Georgia
31804,Columbus,Georgia
31833,Lanett,Georgia
32040,Jacksonville,Florida
32043,Jacksonville,Florida
32043,Orange Park,Florida
32043,null,Florida
32055,High Springs,Florida
32055,Jasper,Florida
32055,Melrose,Florida
32055,null,Florida
32060,Alachua,Florida
32060,Altamonte Springs,Florida
32060,High Springs,Florida
32060,Inverness,Florida
32060,Jacksonville Beach,Florida
32060,Lake Butler,Florida
32060,Lake City,Florida
32060,Live Oak,Florida
32060,Orlando,Florida
32060,Tallahassee,Florida
32060,null,Florida
32064,Fort White,Florida
32064,High Springs,Florida
32064,Opa-locka,Florida
32068,Green Cove Springs,Florida
32084,Branford,Florida
32084,Hialeah,Florida
32084,Inverness,Florida
32084,Jacksonville,Florida
32084,Largo,Florida
32084,London,Florida
32084,St. Augustine,Florida
32084,null,Florida
32091,Ocoee,Florida
32114,Daytona Beach,Florida
32114,Hialeah,Florida
32114,Lakeland,Florida
32114,Port Orange,Florida
32114,The Villages,Florida
32117,Clearwater,Florida
32117,Daytona Beach,Florida
32117,Jacksonville,Florida
32117,Lakeland,Florida
32117,Ormond Beach,Florida
32117,null,Florida
32134,Ocala,Florida
32164,Hialeah,Florida
32164,Palm Coast,Florida
32164,Waterbury,Florida
32164,null,Florida
32177,Palatka,Florida
32205,Fort Lauderdale,Florida
32205,Jacksonville,Florida
32205,Orange Park,Florida
32205,null,Florida
32207,Miami,Florida
32207,Prattville,Florida
32208,Jacksonville,Florida
32208,Miami,Florida
32208,null,Florida
32210,Tallahassee,Florida
32211,Fort White,Florida
32211,Jacksonville,Florida
32211,Miami,Florida
32211,Orange Park,Florida
32211,null,Florida
32216,Ashburn,Florida
32216,Cape Coral,Florida
32216,Chester,Florida
32216,Gainesville,Florida
32216,Jacksonville,Florida
32216,Knoxville,Florida
32216,Lakeland,Florida
32216,Port Saint Lucie,Florida
32216,Seminole,Florida
32216,St. Augustine,Florida
32216,null,Florida
32218,Chesapeake,Florida
32218,Destin,Florida
32218,Hinesville,Florida
32218,Niceville,Florida
32218,Plano,Florida
32218,Sioux Falls,Florida
32225,Jacksonville,Florida
32225,Pompano Beach,Florida
32225,null,Florida
32233,Atlantic Beach,Florida
32233,Jacksonville,Florida
32233,Lake City,Florida
32244,Fort Walton Beach,Florida
32244,Gainesville,Florida
32244,Glenview,Florida
32244,Hialeah,Florida
32244,Jacksonville,Florida
32244,Lake City,Florida
32244,Miami,Florida
32244,Orange Park,Florida
32244,Phoenix,Florida
32244,Ponte Vedra Beach,Florida
32244,Rapid City,Florida
32244,Tallahassee,Florida
32244,Umatilla,Florida
32244,York,Florida
32244,null,Florida
32246,Alma,Florida
32246,Altamonte Springs,Florida
32246,Apopka,Florida
32246,Athens,Florida
32246,Atlantic Beach,Florida
32246,Baton Rouge,Florida
32246,Birmingham,Florida
32246,Flowery Branch,Florida
32246,Fort Lauderdale,Florida
32246,Hialeah,Florida
32246,Jacksonville,Florida
32246,Lake City,Florida
32246,New Smyrna Beach,Florida
32246,Orange Park,Florida
32246,Orlando,Florida
32246,Pensacola,Florida
32246,Ponte Vedra Beach,Florida
32246,San Antonio,Florida
32246,Savannah,Florida
32246,Spring Hill,Florida
32246,Tallahassee,Florida
32246,Uxbridge,Florida
32246,null,Florida
32254,Jacksonville,Florida
32254,Lakeland,Florida
32254,Orange Park,Florida
32256,Jacksonville,Florida
32301,Crawfordville,Florida
32301,Lakeland,Florida
32301,Lorain,Florida
32301,Niceville,Florida
32301,Quincy,Florida
32301,Tallahassee,Florida
32301,null,Florida
32303,Bristol,Florida
32303,Farmingville,Florida
32303,Fremont,Florida
32303,Gastonia,Florida
32303,Jacksonville,Florida
32303,Mt. Pleasant,Florida
32303,Niceville,Florida
32303,Panama City,Florida
32303,Ponte Vedra Beach,Florida
32303,Prattville,Florida
32303,Sterling Heights,Florida
32303,Tallahassee,Florida
32303,Waynesboro,Florida
32303,null,Florida
32304,Crawfordville,Florida
32304,Ellaville,Florida
32304,Grand Rapids,Florida
32304,Grand Ridge,Florida
32304,Panama City,Florida
32304,Southfield,Florida
32304,Tallahassee,Florida
32304,null,Florida
32308,Albany,Florida
32308,Dallas,Florida
32308,Havana,Florida
32308,Panama City Beach,Florida
32308,Quincy,Florida
32308,Tallahassee,Florida
32308,null,Florida
32311,Blountstown,Florida
32311,Fort Lauderdale,Florida
32311,Madison,Florida
32311,Miami,Florida
32311,Quitman,Florida
32311,Tallahassee,Florida
32311,null,Florida
32405,Altamonte Springs,Florida
32405,Atlanta,Florida
32405,Graceville,Florida
32405,Lynn Haven,Florida
32405,Panama City,Florida
32405,Umatilla,Florida
32405,Vero Beach,Florida
32405,White Springs,Florida
32405,null,Florida
32407,Waterloo,Florida
32428,Chipley,Florida
32428,Crestview,Florida
32428,null,Florida
32442,Cleveland,Florida
32442,Dothan,Florida
32442,High Point,Florida
32442,Norcross,Florida
32442,Pensacola,Florida
32442,Tallahassee,Florida
32444,Archer,Florida
32444,Jacksonville,Florida
32444,Key West,Florida
32444,Lynn Haven,Florida
32444,Panama City,Florida
32444,Port Saint Joe,Florida
32446,null,Florida
32503,Atmore,Florida
32503,Bloomington,Florida
32503,Cantonment,Florida
32503,Cedar Falls,Florida
32503,Daphne,Florida
32503,Enterprise,Florida
32503,Fairhope,Florida
32503,Foley,Florida
32503,Gulf Breeze,Florida
32503,Milton,Florida
32503,Pensacola,Florida
32503,Washington,Florida
32503,null,Florida
32504,Milton,Florida
32504,Mobile,Florida
32505,Allen,Florida
32505,Atmore,Florida
32505,Baton Rouge,Florida
32505,Broussard,Florida
32505,Chennai,Florida
32505,Crestview,Florida
32505,Daphne,Florida
32505,Destin,Florida
32505,Foley,Florida
32505,Gulf Breeze,Florida
32505,Jacksonville,Florida
32505,Milton,Florida
32505,Mobile,Florida
32505,Monroeville,Florida
32505,Navarre,Florida
32505,Omega,Florida
32505,Panama City,Florida
32505,Pensacola,Florida
32505,Rochester,Florida
32505,Roswell,Florida
32505,Valdosta,Florida
32505,Wesley Chapel,Florida
32505,null,Florida
32506,Columbia,Florida
32506,Daleville,Florida
32506,Irmo,Florida
32506,Milton,Florida
32506,Navarre,Florida
32506,Niceville,Florida
32506,Ozark,Florida
32506,Pensacola,Florida
32506,San Bruno,Florida
32506,null,Florida
32507,Marietta,Florida
32507,Pensacola,Florida
32514,null,Florida
32534,Albany,Florida
32534,Biloxi,Florida
32534,Bush,Florida
32534,Colorado Springs,Florida
32534,Crestview,Florida
32534,DeFuniak Springs,Florida
32534,Denver,Florida
32534,Destin,Florida
32534,Foley,Florida
32534,Griswold,Florida
32534,Guthrie,Florida
32534,Houston,Florida
32534,McDavid,Florida
32534,Mobile,Florida
32534,New Orleans,Florida
32534,Niceville,Florida
32534,Ocean Springs,Florida
32534,Panama City,Florida
32534,Pensacola,Florida
32534,Pike Road,Florida
32534,Semmes,Florida
32534,Shalimar,Florida
32534,Sylacauga,Florida
32534,null,Florida
32548,Fort Walton Beach,Florida
32548,Niceville,Florida
32548,Panama City,Florida
32566,Birmingham,Florida
32566,Destin,Florida
32566,Navarre,Florida
32566,Pensacola,Florida
32571,Baton Rouge,Florida
32571,Franklin,Florida
32571,Gulf Breeze,Florida
32571,Niceville,Florida
32571,Pensacola,Florida
32578,Blountstown,Florida
32578,Cantonment,Florida
32578,Crestview,Florida
32578,DeFuniak Springs,Florida
32578,Destin,Florida
32578,Fort Walton Beach,Florida
32578,Freeport,Florida
32578,Moscow,Florida
32578,Niceville,Florida
32578,Valparaiso,Florida
32609,Apopka,Florida
32609,Beverly Hills,Florida
32609,Boulder,Florida
32609,Gainesville,Florida
32609,Lady Lake,Florida
32609,League City,Florida
32609,Phoenix,Florida
32609,San Bruno,Florida
32609,Spring Hill,Florida
32609,null,Florida
32618,Asheboro,Florida
32618,Gainesville,Florida
32618,Lakeland,Florida
32626,Apopka,Florida
32626,Archer,Florida
32626,Beverly Hills,Florida
32626,Crestview,Florida
32626,Englewood,Florida
32626,Gainesville,Florida
32626,Klin,Florida
32626,Moscow,Florida
32626,Ocala,Florida
32626,Perry,Florida
32626,Tifton,Florida
32626,Wildwood,Florida
32693,Branford,Florida
32696,Altamonte Springs,Florida
32696,Apopka,Florida
32696,Gainesville,Florida
32696,Inverness,Florida
32703,Apopka,Florida
32703,Leesburg,Florida
32703,Ocoee,Florida
32713,null,Florida
32720,DeLand,Florida
32750,Clermont,Florida
32750,Kissimmee,Florida
32750,Lake Mary,Florida
32750,Orlando,Florida
32750,Punta Gorda,Florida
32750,St. Augustine,Florida
32750,Tallahassee,Florida
32750,null,Florida
32771,Altamonte Springs,Florida
32771,Apopka,Florida
32771,Austin,Florida
32771,Casselberry,Florida
32771,Columbia,Florida
32771,DeLand,Florida
32771,Eustis,Florida
32771,Fort Lauderdale,Florida
32771,Hialeah,Florida
32771,High Springs,Florida
32771,Homer,Florida
32771,Kissimmee,Florida
32771,Lake Mary,Florida
32771,Lakeland,Florida
32771,Longwood,Florida
32771,Melbourne,Florida
32771,Miami,Florida
32771,Naples,Florida
32771,Ocala,Florida
32771,Ocoee,Florida
32771,Orlando,Florida
32771,Pompano Beach,Florida
32771,Sanford,Florida
32771,Spanish Fort,Florida
32771,Summerfield,Florida
32771,Umatilla,Florida
32771,Vero Beach,Florida
32771,Wilmington,Florida
32771,null,Florida
32773,Altamonte Springs,Florida
32773,Orlando,Florida
32776,Apopka,Florida
32776,Maitland,Florida
32776,Windermere,Florida
32784,Saint Paul,Florida
32801,Apopka,Florida
32801,Melbourne Beach,Florida
32801,Orlando,Florida
32804,Apopka,Florida
32804,Ashburn,Florida
32804,Byron,Florida
32804,Clermont,Florida
32804,Deltona,Florida
32804,Gainesville,Florida
32804,Lake Mary,Florida
32804,Maitland,Florida
32804,Melbourne,Florida
32804,Miami,Florida
32804,New Port Richey,Florida
32804,Orlando,Florida
32804,Pensacola,Florida
32804,Winter Park,Florida
32804,null,Florida
32805,DeLand,Florida
32805,Orlando,Florida
32805,Sanford,Florida
32805,null,Florida
32808,Longwood,Florida
32808,Melbourne,Florida
32808,Mooresville,Florida
32808,Orlando,Florida
32808,Port Orange,Florida
32808,Winter Garden,Florida
32808,Winter Haven,Florida
32808,null,Florida
32809,Bentonville,Florida
32809,Bridgeport,Florida
32809,Cocoa Beach,Florida
32809,DeLand,Florida
32809,Kissimmee,Florida
32809,Longwood,Florida
32809,Louisville,Florida
32809,Medellín,Florida
32809,Orlando,Florida
32809,Palm Bay,Florida
32809,Parlin,Florida
32809,Sarasota,Florida
32809,Winter Garden,Florida
32809,Winter Park,Florida
32809,null,Florida
32810,Winter Park,Florida
32811,Apopka,Florida
32811,null,Florida
32817,Kissimmee,Florida
32817,Orlando,Florida
32822,Apopka,Florida
32822,Dunnellon,Florida
32822,Kissimmee,Florida
32822,Lakeland,Florida
32822,Largo,Florida
32822,Melbourne,Florida
32822,New Holland,Florida
32822,Orlando,Florida
32822,Smithfield,Florida
32822,Tampa,Florida
32822,Windermere,Florida
32822,null,Florida
32824,Altamonte Springs,Florida
32824,Apopka,Florida
32824,Greenville,Florida
32824,Jacksonville,Florida
32824,Miami,Florida
32824,Mt. Dora,Florida
32824,Orlando,Florida
32824,Palatka,Florida
32824,Port Orange,Florida
32824,Saint Cloud,Florida
32824,Santo Domingo,Florida
32824,Titusville,Florida
32824,Winter Park,Florida
32824,null,Florida
32837,Clermont,Florida
32839,Apopka,Florida
32839,Bradenton,Florida
32839,Indaiatuba,Florida
32839,Orlando,Florida
32839,Palatka,Florida
32839,Saint Cloud,Florida
32839,Sebring,Florida
32839,Winter Park,Florida
32839,null,Florida
32901,Melbourne,Florida
32901,null,Florida
32904,Melbourne,Florida
32905,Boca Raton,Florida
32905,Melbourne,Florida
32905,Palm Bay,Florida
32907,Melbourne,Florida
32907,Palm Bay,Florida
32907,Rockledge,Florida
32922,null,Florida
32927,Orlando,Florida
32935,Melbourne,Florida
32962,Vero Beach,Florida
33023,Fort Lauderdale,Florida
33023,Hialeah,Florida
33023,Hollywood,Florida
33023,Lakeland,Florida
33023,Miami,Florida
33023,Morganton,Florida
33023,Orlando,Florida
33023,Palm Beach Gardens,Florida
33023,Tampa,Florida
33023,null,Florida
33032,Hialeah,Florida
33032,Hollywood,Florida
33032,Homestead,Florida
33032,Key Largo,Florida
33032,Miami,Florida
33032,Walnut Creek,Florida
33032,null,Florida
33054,Miami,Florida
33060,Fort Lauderdale,Florida
33060,Orlando,Florida
33060,Pompano Beach,Florida
33064,Auburn,Florida
33064,Greenwood,Florida
33064,Hialeah,Florida
33064,Hollywood,Florida
33064,Lakeland,Florida
33064,Louisville,Florida
33064,Pompano Beach,Florida
33064,null,Florida
33069,Fort Lauderdale,Florida
33069,Goldsboro,Florida
33069,Hialeah,Florida
33069,Lebanon,Florida
33069,Miami,Florida
33069,Pompano Beach,Florida
33069,San Francisco,Florida
33147,Ap'o,Florida
33147,Miami,Florida
33147,null,Florida
33166,Miami,Florida
33166,null,Florida
33311,Fort Lauderdale,Florida
33311,Hialeah,Florida
33311,Miami,Florida
33311,Pompano Beach,Florida
33311,null,Florida
33314,Delray Beach,Florida
33314,Miami,Florida
33409,West Palm Beach,Florida
33415,Lakeland,Florida
33415,Pompano Beach,Florida
33415,Roanoke,Florida
33430,Deerfield Beach,Florida
33440,Arcadia,Florida
33440,Clewiston,Florida
33440,Daytona Beach,Florida
33440,Fort Lauderdale,Florida
33440,Miami,Florida
33440,null,Florida
33444,Charleston,Florida
33444,Indialantic,Florida
33444,Miami,Florida
33460,West Palm Beach,Florida
33483,Fort Lauderdale,Florida
33483,Ronkonkoma,Florida
33483,Sarasota,Florida
33513,Kissimmee,Florida
33513,Spring Hill,Florida
33513,Wildwood,Florida
33513,Winter Park,Florida
33513,null,Florida
33523,Clearwater,Florida
33523,Dade City,Florida
33523,Eureka,Florida
33523,Winter Park,Florida
33523,Zephyrhills,Florida
33523,null,Florida
33534,Norfolk,Florida
33542,Zephyrhills,Florida
33548,Altamonte Springs,Florida
33548,Byron,Florida
33548,Conyers,Florida
33548,Miami,Florida
33563,Cordova,Florida
33563,Davenport,Florida
33563,Hialeah,Florida
33563,Lakeland,Florida
33563,Seffner,Florida
33563,Tampa,Florida
33563,null,Florida
33566,Brandon,Florida
33566,Lakeland,Florida
33566,Tampa,Florida
33566,null,Florida
33567,Beckley,Florida
33567,Brandon,Florida
33567,Elkins,Florida
33567,Largo,Florida
33567,Palm Bay,Florida
33567,Seminole,Florida
33567,Tampa,Florida
33578,Brandon,Florida
33578,Ruskin,Florida
33578,Tampa,Florida
33584,Seffner,Florida
33584,Tampa,Florida
33597,Beverly Hills,Florida
33603,Athens,Florida
33603,Chicago,Florida
33603,Clearwater,Florida
33603,Gainesville,Florida
33603,Saint Petersburg,Florida
33603,Sarasota,Florida
33603,Tampa,Florida
33604,Boca Raton,Florida
33604,Clearwater,Florida
33604,Fort Lauderdale,Florida
33604,Fort Myers,Florida
33604,Holiday,Florida
33604,Kuwait City,Florida
33604,Miami,Florida
33604,Saint Petersburg,Florida
33604,Spring Hill,Florida
33604,Tampa,Florida
33604,null,Florida
33607,Tampa,Florida
33610,Oshkosh,Florida
33610,Riverview,Florida
33610,Seminole,Florida
33610,Tampa,Florida
33610,Winter Garden,Florida
33610,null,Florida
33612,Burlington,Florida
33612,Damascus,Florida
33612,Jacksonville,Florida
33612,Lake City,Florida
33612,Lakeland,Florida
33612,Miami,Florida
33612,New Port Richey,Florida
33612,Orlando,Florida
33612,Palmetto,Florida
33612,Plant City,Florida
33612,Richmond,Florida
33612,Riverview,Florida
33612,Sarasota,Florida
33612,Spring Hill,Florida
33612,St. Augustine,Florida
33612,Tampa,Florida
33612,Valrico,Florida
33612,Winter Haven,Florida
33612,Zephyrhills,Florida
33612,null,Florida
33613,Greenville,Florida
33613,New Hartford,Florida
33613,Saint Petersburg,Florida
33614,Altamonte Springs,Florida
33614,Arlington,Florida
33614,Birmingham,Florida
33614,Bluffton,Florida
33614,Bradenton,Florida
33614,Chicago,Florida
33614,Clermont,Florida
33614,Dayton,Florida
33614,DeLand,Florida
33614,Gibsonton,Florida
33614,Inverness,Florida
33614,Lake City,Florida
33614,Lakeland,Florida
33614,Largo,Florida
33614,Louisville,Florida
33614,Orlando,Florida
33614,Plant City,Florida
33614,Saint Petersburg,Florida
33614,Tampa,Florida
33614,null,Florida
33619,Altamonte Springs,Florida
33619,Apopka,Florida
33619,Boca Raton,Florida
33619,Detroit,Florida
33619,Hialeah,Florida
33619,Lakeland,Florida
33619,Land O' Lakes,Florida
33619,New Port Richey,Florida
33619,North Port,Florida
33619,Tampa,Florida
33619,null,Florida
33624,Tampa,Florida
33624,null,Florida
33625,Land O' Lakes,Florida
33625,null,Florida
33634,Orlando,Florida
33634,Tampa,Florida
33634,null,Florida
33708,Lakeland,Florida
33708,New Port Richey,Florida
33708,Palmetto,Florida
33708,Pinellas Park,Florida
33708,Sarasota,Florida
33708,Seminole,Florida
33708,Sun City Center,Florida
33708,Tampa,Florida
33708,null,Florida
33709,Altamonte Springs,Florida
33709,Apopka,Florida
33709,Bradenton,Florida
33709,Clearwater,Florida
33709,Dunedin,Florida
33709,Fort Myers,Florida
33709,Hialeah,Florida
33709,Jacksonville,Florida
33709,Lakeland,Florida
33709,Largo,Florida
33709,Miami,Florida
33709,Northbrook,Florida
33709,Orlando,Florida
33709,Ormond Beach,Florida
33709,Palm Harbor,Florida
33709,Pinellas Park,Florida
33709,Saint Petersburg,Florida
33709,Seminole,Florida
33709,Sun City Center,Florida
33709,Tampa,Florida
33709,Winter Garden,Florida
33709,Winter Park,Florida
33709,null,Florida
33714,Apopka,Florida
33714,Brooklyn,Florida
33714,Fort Myers,Florida
33714,Largo,Florida
33714,Miami,Florida
33714,Orlando,Florida
33714,Philadelphia,Florida
33714,Pinellas Park,Florida
33714,Saint Petersburg,Florida
33714,Sebring,Florida
33714,Tampa,Florida
33714,null,Florida
33756,null,Florida
33759,Sumter,Florida
33762,Clearwater,Florida
33762,Lakeland,Florida
33762,Louisville,Florida
33762,Port Richey,Florida
33762,Sanford,Florida
33762,Spring Hill,Florida
33762,Tampa,Florida
33762,Weaverville,Florida
33764,Lakeland,Florida
33770,Ada,Florida
33770,Bardstown,Florida
33770,Beverly Hills,Florida
33770,Birmingham,Florida
33770,Boonville,Florida
33770,Bradenton,Florida
33770,Calabash,Florida
33770,Cape Coral,Florida
33770,Clarkesville,Florida
33770,Clearwater,Florida
33770,Dallas,Florida
33770,Deltona,Florida
33770,Detroit,Florida
33770,Eugene,Florida
33770,Homosassa,Florida
33770,Inverness,Florida
33770,Irving,Florida
33770,Kissimmee,Florida
33770,Lady Lake,Florida
33770,Lake Worth,Florida
33770,Lakeland,Florida
33770,Land O' Lakes,Florida
33770,Largo,Florida
33770,Las Vegas,Florida
33770,Livingston,Florida
33770,London,Florida
33770,Lynn Haven,Florida
33770,Macomb,Florida
33770,Marianna,Florida
33770,Miami,Florida
33770,Minneapolis,Florida
33770,Nashville,Florida
33770,New Port Richey,Florida
33770,North Liberty,Florida
33770,North Port,Florida
33770,Paris,Florida
33770,Pinellas Park,Florida
33770,Safety Harbor,Florida
33770,Saint Petersburg,Florida
33770,Sarasota,Florida
33770,Schenectady,Florida
33770,Seaford,Florida
33770,Shalimar,Florida
33770,St Louis,Florida
33770,St. Thomas,Florida
33770,Staten Island,Florida
33770,Stuart,Florida
33770,Summerfield,Florida
33770,Tampa,Florida
33770,The Bronx,Florida
33770,Toronto,Florida
33770,Wakefield,Florida
33770,Warren Township,Florida
33770,Wharton,Florida
33770,null,Florida
33777,Annapolis,Florida
33777,Dunedin,Florida
33777,Largo,Florida
33777,New York,Florida
33777,Pinellas Park,Florida
33777,Ponchatoula,Florida
33777,Saint Petersburg,Florida
33781,Antwerp,Florida
33781,Apopka,Florida
33781,Atlanta,Florida
33781,Brooklyn,Florida
33781,Byron,Florida
33781,Deltona,Florida
33781,Ellenwood,Florida
33781,Eustis,Florida
33781,Fort Lauderdale,Florida
33781,Glossop,Florida
33781,Hialeah,Florida
33781,Homosassa,Florida
33781,Inverness,Florida
33781,Johnson City,Florida
33781,Kissimmee,Florida
33781,Lady Lake,Florida
33781,Lakeland,Florida
33781,Largo,Florida
33781,Lawrenceburg,Florida
33781,Miami,Florida
33781,Miami Beach,Florida
33781,Monroe,Florida
33781,Naples,Florida
33781,Nassau,Florida
33781,New Port Richey,Florida
33781,North Port,Florida
33781,Northbrook,Florida
33781,Odessa,Florida
33781,Oldsmar,Florida
33781,Orlando,Florida
33781,Pawtucket,Florida
33781,Pinellas Park,Florida
33781,Riverview,Florida
33781,Saint Petersburg,Florida
33781,San Diego,Florida
33781,Sarasota,Florida
33781,Seminole,Florida
33781,St. Augustine,Florida
33781,Sun City Center,Florida
33781,Tampa,Florida
33781,Tarpon Springs,Florida
33781,Zephyrhills,Florida
33781,null,Florida
33782,Clearwater,Florida
33801,Auburndale,Florida
33801,Cape Coral,Florida
33801,Lakeland,Florida
33801,Tampa,Florida
33801,null,Florida
33809,Lakeland,Florida
33810,St. Augustine,Florida
33815,Lakeland,Florida
33815,null,Florida
33823,Ocala,Florida
33823,null,Florida
33825,Avon Park,Florida
33825,Bartow,Florida
33825,Forney,Florida
33825,Fort Myers,Florida
33825,Lehigh Acres,Florida
33825,Palm City,Florida
33844,Davenport,Florida
33844,Haines City,Florida
33844,Ocoee,Florida
33844,Saint Cloud,Florida
33844,Tampa,Florida
33844,Wimauma,Florida
33844,Winter Haven,Florida
33844,null,Florida
33860,Altamonte Springs,Florida
33860,Haines City,Florida
33880,Apopka,Florida
33880,Bartow,Florida
33880,Bushnell,Florida
33880,Davenport,Florida
33880,Indiana,Florida
33880,Kissimmee,Florida
33880,Lake Wales,Florida
33880,Lakeland,Florida
33880,Miami,Florida
33880,Mulberry,Florida
33901,Cape Coral,Florida
33901,Fort Myers,Florida
33901,Naples,Florida
33901,North Fort Myers,Florida
33901,Titusville,Florida
33903,Akron,Florida
33903,Cape Coral,Florida
33903,Fort Myers,Florida
33903,Miami,Florida
33903,Naples,Florida
33905,Austin,Florida
33905,Cape Coral,Florida
33908,Cape Coral,Florida
33908,Fort Myers,Florida
33908,Hyannis,Florida
33908,Lehigh Acres,Florida
33908,Marco Island,Florida
33908,Miami,Florida
33908,Moorestown Township,Florida
33908,Orlando,Florida
33908,Tallahassee,Florida
33912,Cape Coral,Florida
33912,Gainesville,Florida
33912,Lehigh Acres,Florida
33912,Minot,Florida
33912,Naples,Florida
33912,North Fort Myers,Florida
33912,Sarasota,Florida
33912,Tallahassee,Florida
33912,Tampa,Florida
33912,Waldorf,Florida
33916,Aurora,Florida
33916,Fort Myers,Florida
33980,Oklahoma City,Florida
33982,Far Rockaway,Florida
33982,Fort Myers,Florida
33982,Lehigh Acres,Florida
33982,Owego,Florida
33983,Punta Gorda,Florida
33990,Cape Coral,Florida
33990,Fort Myers,Florida
34135,Alajuela,Florida
34135,Jacksonville,Florida
34135,Marion,Florida
34135,Naples,Florida
34205,Hialeah,Florida
34205,Myakka City,Florida
34205,Naples,Florida
34205,Tampa,Florida
34205,null,Florida
34207,Aguas Buenas,Florida
34207,Alachua,Florida
34207,Alexandria,Florida
34207,Altamonte Springs,Florida
34207,Alva,Florida
34207,Amelia,Florida
34207,Apopka,Florida
34207,Arcadia,Florida
34207,Archer,Florida
34207,Atlanta,Florida
34207,Austin,Florida
34207,Avon,Florida
34207,Avon Park,Florida
34207,Beirut,Florida
34207,Belgrade,Florida
34207,Birmingham,Florida
34207,Bluffton,Florida
34207,Boca Raton,Florida
34207,Bonita Springs,Florida
34207,Bradenton,Florida
34207,Bradenton Beach,Florida
34207,Brampton,Florida
34207,Brecksville,Florida
34207,Brooklyn,Florida
34207,Cambridge,Florida
34207,Canton,Florida
34207,Cape Coral,Florida
34207,Chelsea,Florida
34207,Chester,Florida
34207,Chicago,Florida
34207,Cincinnati,Florida
34207,Clearwater,Florida
34207,Clermont,Florida
34207,Cordova,Florida
34207,De Graff,Florida
34207,DeBary,Florida
34207,Detroit,Florida
34207,Dunedin,Florida
34207,Durham,Florida
34207,Eagle Lake,Florida
34207,Ellenton,Florida
34207,Ellenwood,Florida
34207,Englewood,Florida
34207,Estero,Florida
34207,Fort Lauderdale,Florida
34207,Fort Myers,Florida
34207,Franklin,Florida
34207,Gainesville,Florida
34207,Gibsonton,Florida
34207,Grand Rapids,Florida
34207,Herndon,Florida
34207,Hialeah,Florida
34207,Hollywood,Florida
34207,Homosassa,Florida
34207,Independence,Florida
34207,Indiana,Florida
34207,Irvine,Florida
34207,Irvington,Florida
34207,Jackson,Florida
34207,Jacksonville,Florida
34207,Jacksonville Beach,Florida
34207,Järvenpää,Florida
34207,Kenosha,Florida
34207,Kiel,Florida
34207,Kissimmee,Florida
34207,Lake Mary,Florida
34207,Lakeland,Florida
34207,Land O' Lakes,Florida
34207,Lansing,Florida
34207,Largo,Florida
34207,Laurel,Florida
34207,Lehigh Acres,Florida
34207,Lexington,Florida
34207,Lithia,Florida
34207,Longboat Key,Florida
34207,Louisville,Florida
34207,Manassas,Florida
34207,Manchester,Florida
34207,Marietta,Florida
34207,Medina,Florida
34207,Melbourne,Florida
34207,Menlo Park,Florida
34207,Mentor,Florida
34207,Metairie,Florida
34207,Miami,Florida
34207,Mountain View,Florida
34207,Myakka City,Florida
34207,Naperville,Florida
34207,Naples,Florida
34207,New Port Richey,Florida
34207,New York,Florida
34207,Newington,Florida
34207,Nokomis,Florida
34207,North Attleboro,Florida
34207,North Port,Florida
34207,Northbridge,Florida
34207,Norwich,Florida
34207,Ocala,Florida
34207,Ocoee,Florida
34207,Odessa,Florida
34207,Old Saybrook,Florida
34207,Ona,Florida
34207,Orlando,Florida
34207,Osprey,Florida
34207,Overland Park,Florida
34207,Oviedo,Florida
34207,Palm Harbor,Florida
34207,Palmetto,Florida
34207,Parrish,Florida
34207,Peabody,Florida
34207,Philadelphia,Florida
34207,Phoenix,Florida
34207,Pinellas Park,Florida
34207,Polk City,Florida
34207,Pompano Beach,Florida
34207,Port Charlotte,Florida
34207,Punta Gorda,Florida
34207,Quincy,Florida
34207,Ramallah,Florida
34207,Richmond,Florida
34207,Riverview,Florida
34207,Roslindale,Florida
34207,Ruskin,Florida
34207,Safety Harbor,Florida
34207,Saint Petersburg,Florida
34207,San Bruno,Florida
34207,San Miniato,Florida
34207,Sarasota,Florida
34207,Satellite Beach,Florida
34207,Sebring,Florida
34207,Seminole,Florida
34207,Somerset,Florida
34207,South Sanford,Florida
34207,Spring Hill,Florida
34207,Stone Mountain,Florida
34207,Sun City Center,Florida
34207,Takoma Park,Florida
34207,Tallahassee,Florida
34207,Tallinn,Florida
34207,Tampa,Florida
34207,The Bronx,Florida
34207,Valrico,Florida
34207,Vankleek Hill,Florida
34207,Venice,Florida
34207,Wauchula,Florida
34207,Waverley,Florida
34207,Weirton,Florida
34207,Westerly,Florida
34207,Wimauma,Florida
34207,Windermere,Florida
34207,Windsor,Florida
34207,Winter Garden,Florida
34207,Zephyrhills,Florida
34207,null,Florida
34208,Bradenton,Florida
34208,Hialeah,Florida
34208,Lakeland,Florida
34208,null,Florida
34223,Bradenton,Florida
34223,Fort Myers,Florida
34223,Port Charlotte,Florida
34231,Bradenton,Florida
34231,New Port Richey,Florida
34231,North Port,Florida
34231,Punta Gorda,Florida
34231,Stone Mountain,Florida
34231,Tampa,Florida
34231,null,Florida
34232,Sarasota,Florida
34233,Sarasota,Florida
34233,Tampa,Florida
34233,Vallentuna,Florida
34233,null,Florida
34237,Acworth,Florida
34237,Fort Myers,Florida
34237,Winter Garden,Florida
34238,Plant City,Florida
34238,Sarasota,Florida
34239,Waycross,Florida
34243,Bradenton,Florida
34243,Cape Coral,Florida
34243,Ladson,Florida
34243,Lakeland,Florida
34243,Palmetto,Florida
34243,Tallahassee,Florida
34243,Wollerau,Florida
34275,Lakeland,Florida
34275,Miami,Florida
34275,Venice,Florida
34420,Hialeah,Florida
34420,Lady Lake,Florida
34429,Beverly Hills,Florida
34429,Hudson,Florida
34432,Belgrade,Florida
34448,Altamonte Springs,Florida
34448,Homosassa,Florida
34448,Inverness,Florida
34448,Lake Butler,Florida
34448,Spring Hill,Florida
34448,Summerfield,Florida
34450,Homosassa,Florida
34450,Inverness,Florida
34450,Lady Lake,Florida
34450,Lakeland,Florida
34450,Ocala,Florida
34450,Tampa,Florida
34450,Wildwood,Florida
34471,Alachua,Florida
34471,Beverly Hills,Florida
34471,Callahan,Florida
34471,College Station,Florida
34471,Davenport,Florida
34471,Decatur,Florida
34471,Dunnellon,Florida
34471,Jacksonville,Florida
34471,Lady Lake,Florida
34471,Lake City,Florida
34471,London,Florida
34471,Ocala,Florida
34471,Orlando,Florida
34471,Saint Cloud,Florida
34471,Spartanburg,Florida
34471,Summerfield,Florida
34471,Winter Park,Florida
34471,null,Florida
34475,Altamonte Springs,Florida
34475,Belleview,Florida
34475,Beverly Hills,Florida
34475,Grand Island,Florida
34475,Jacksonville,Florida
34475,Lady Lake,Florida
34475,Maitland,Florida
34475,Ocala,Florida
34475,Plant City,Florida
34475,Summerfield,Florida
34475,Tampa,Florida
34475,null,Florida
34480,Belleview,Florida
34481,Brandon,Florida
34481,Gainesville,Florida
34481,Ocala,Florida
34481,Summerfield,Florida
34481,null,Florida
34491,null,Florida
34601,Apopka,Florida
34601,Batavia,Florida
34601,Brooksville,Florida
34601,Cape Coral,Florida
34601,Dunnellon,Florida
34601,Ejido Jacume,Florida
34601,Fairbanks,Florida
34601,Hudson,Florida
34601,Inverness,Florida
34601,North Fort Myers,Florida
34601,Orlando,Florida
34601,Port Richey,Florida
34601,Ruskin,Florida
34601,Saint Petersburg,Florida
34601,Spring Hill,Florida
34601,Tampa,Florida
34601,The Villages,Florida
34601,Venice,Florida
34601,Zephyrhills,Florida
34610,Sun City Center,Florida
34613,Archer,Florida
34613,Homosassa,Florida
34613,Spring Hill,Florida
34613,Tampa,Florida
34614,Eustis,Florida
34614,Inverness,Florida
34614,Tallahassee,Florida
34614,Tampa,Florida
34638,Lakeland,Florida
34638,Land O' Lakes,Florida
34638,Largo,Florida
34638,Lorton,Florida
34638,Munising,Florida
34638,Ocoee,Florida
34638,Port Charlotte,Florida
34638,Saint Petersburg,Florida
34638,Summerfield,Florida
34638,Tampa,Florida
34638,Valrico,Florida
34638,null,Florida
34652,Piedmont,Florida
34652,Tampa,Florida
34667,Brandon,Florida
34667,Inverness,Florida
34667,Milton,Florida
34668,New Port Richey,Florida
34668,Spring Hill,Florida
34668,Tampa,Florida
34669,Apopka,Florida
34669,Clearwater,Florida
34669,Hialeah,Florida
34669,Jacksonville,Florida
34669,Kissimmee,Florida
34669,Lakeland,Florida
34669,Moscow,Florida
34669,New Port Richey,Florida
34669,Orlando,Florida
34669,Port Richey,Florida
34669,Saint Petersburg,Florida
34669,Spring Hill,Florida
34669,Tampa,Florida
34669,null,Florida
34677,Lakeland,Florida
34677,Plant City,Florida
34683,Largo,Florida
34683,Plymouth,Florida
34683,Port Richey,Florida
34683,Tampa,Florida
34684,Brooklyn,Florida
34684,Orlando,Florida
34684,Saint Petersburg,Florida
34684,null,Florida
34689,Lake Worth,Florida
34689,Northbrook,Florida
34689,Palm Harbor,Florida
34689,Stowe,Florida
34689,Tampa,Florida
34690,Fort Walton Beach,Florida
34691,Apopka,Florida
34691,Palm Harbor,Florida
34744,Kissimmee,Florida
34744,Miami,Florida
34748,Altamonte Springs,Florida
34748,Apopka,Florida
34748,David,Florida
34748,Gainesville,Florida
34748,Lady Lake,Florida
34748,Lakeland,Florida
34748,Leesburg,Florida
34748,Louisville,Florida
34748,Orlando,Florida
34748,Ottawa,Florida
34748,Pompano Beach,Florida
34748,Redwood City,Florida
34748,Tampa,Florida
34748,Wildwood,Florida
34748,null,Florida
34753,Winter Park,Florida
34761,Altamonte Springs,Florida
34761,Ocoee,Florida
34761,Winter Garden,Florida
34787,Chicago,Florida
34787,Kissimmee,Florida
34787,Lakeland,Florida
34787,Miami,Florida
34787,Orlando,Florida
34946,null,Florida
34950,Ellenwood,Florida
34950,Port Saint Lucie,Florida
34974,Orlando,Florida
34982,Aurora,Florida
34982,Clark,Florida
34982,Ft. Pierce,Florida
34982,Hazelwood,Florida
34982,Miami,Florida
34982,Sebastian,Florida
34982,Vero Beach,Florida
34994,Oviedo,Florida
35016,Albertville,Alabama
35016,Chicago,Alabama
35016,Cullman,Alabama
35020,Birmingham,Alabama
35020,Tuscaloosa,Alabama
35020,null,Alabama
35023,null,Alabama
35058,Cullman,Alabama
35080,Birmingham,Alabama
35080,Bremen,Alabama
35080,Montgomery,Alabama
35080,Rainsville,Alabama
35080,null,Alabama
35085,Alabaster,Alabama
35085,Opelika,Alabama
35085,Wetumpka,Alabama
35085,null,Alabama
35117,Birmingham,Alabama
35117,Cullman,Alabama
35117,Gardendale,Alabama
35117,Griffin,Alabama
35117,Martinsburg,Alabama
35117,Pinson,Alabama
35117,Warrior,Alabama
35117,null,Alabama
35150,null,Alabama
35212,null,Alabama
35216,Prattville,Alabama
35233,Birmingham,Alabama
35233,Detroit,Alabama
35235,Birmingham,Alabama
35235,Chattanooga,Alabama
35242,Birmingham,Alabama
35242,Clanton,Alabama
35405,Atlanta,Alabama
35405,Birmingham,Alabama
35405,Marion,Alabama
35501,Birmingham,Alabama
35501,Cedar Rapids,Alabama
35501,Columbus,Alabama
35501,Fayetteville,Alabama
35501,Jasper,Alabama
35501,Madison,Alabama
35501,Oneonta,Alabama
35501,Trussville,Alabama
35501,null,Alabama
35555,Birmingham,Alabama
35555,Guntown,Alabama
35555,Northport,Alabama
35555,null,Alabama
35565,null,Alabama
35570,Chennai,Alabama
35570,Dickson,Alabama
35570,Nashville,Alabama
35570,Talladega,Alabama
35570,Tuscaloosa,Alabama
35570,null,Alabama
35594,Tuscaloosa,Alabama
35653,Decatur,Alabama
35653,Lincolnshire,Alabama
35654,Savannah,Alabama
35661,Birmingham,Alabama
35661,Chicago,Alabama
35661,Decatur,Alabama
35661,Florence,Alabama
35661,Huntsville,Alabama
35661,Killen,Alabama
35661,Muscle Shoals,Alabama
35661,null,Alabama
35756,Madison,Alabama
35805,Huntsville,Alabama
35805,Montgomery,Alabama
35805,null,Alabama
35810,Huntsville,Alabama
35816,Huntsville,Alabama
35816,Madison,Alabama
35816,New Market,Alabama
35816,Vicksburg,Alabama
35954,Gadsden,Alabama
35954,Sylacauga,Alabama
36078,Tallassee,Alabama
36110,Montgomery,Alabama
36116,Birmingham,Alabama
36116,Montgomery,Alabama
36116,Niceville,Alabama
36116,null,Alabama
36117,Montgomery,Alabama
36203,Alexander City,Alabama
36203,Anniston,Alabama
36203,Boise,Alabama
36203,Cleveland,Alabama
36203,Donalsonville,Alabama
36203,Erin,Alabama
36203,Fort Huachuaca,Alabama
36203,La Grange,Alabama
36203,Lilburn,Alabama
36203,Lincoln,Alabama
36203,Old Hickory,Alabama
36203,Oneonta,Alabama
36203,Page,Alabama
36203,Pell City,Alabama
36203,Rome,Alabama
36203,null,Alabama
36330,Enterprise,Alabama
36330,Fort Rucker,Alabama
36330,null,Alabama
36420,Andalusia,Alabama
36420,null,Alabama
36526,Atlanta,Alabama
36526,Beverly Hills,Alabama
36526,Birmingham,Alabama
36526,Daphne,Alabama
36526,Eatonton,Alabama
36526,Enterprise,Alabama
36526,Fairhope,Alabama
36526,Foley,Alabama
36526,Folsom,Alabama
36526,Freeport,Alabama
36526,Gonzalez,Alabama
36526,Grand Prairie,Alabama
36526,Greenville,Alabama
36526,Gulf Shores,Alabama
36526,Las Cruces,Alabama
36526,Metairie,Alabama
36526,Miramar Beach,Alabama
36526,Mobile,Alabama
36526,New Orleans,Alabama
36526,Ocala,Alabama
36526,Pascagoula,Alabama
36526,Pensacola,Alabama
36526,Saint Charles,Alabama
36526,Saraland,Alabama
36526,Satsuma,Alabama
36526,Semmes,Alabama
36526,Silverhill,Alabama
36526,Spanish Fort,Alabama
36526,Stone Mountain,Alabama
36526,null,Alabama
36545,Elk Grove Village,Alabama
36545,Jackson,Alabama
36545,Monroeville,Alabama
36545,Saraland,Alabama
36545,null,Alabama
36567,Athens,Alabama
36567,Foley,Alabama
36567,Hamel,Alabama
36567,Houston,Alabama
36567,null,Alabama
36580,Foley,Alabama
36580,Lincoln,Alabama
36606,Biloxi,Alabama
36606,Cantonment,Alabama
36606,Charlotte,Alabama
36606,Daphne,Alabama
36606,Dothan,Alabama
36606,Foley,Alabama
36606,Gulfport,Alabama
36606,Hattiesburg,Alabama
36606,Havana,Alabama
36606,Houston,Alabama
36606,Lakeland,Alabama
36606,Long Beach,Alabama
36606,Metairie,Alabama
36606,Milton,Alabama
36606,Mobile,Alabama
36606,Moss Point,Alabama
36606,New York,Alabama
36606,Orlando,Alabama
36606,Panama City Beach,Alabama
36606,Pensacola,Alabama
36606,Poplarville,Alabama
36606,Redmond,Alabama
36606,Saraland,Alabama
36606,Semmes,Alabama
36606,Spring,Alabama
36606,Sumrall,Alabama
36606,Theodore,Alabama
36606,null,Alabama
36608,Butler,Alabama
36608,Columbus,Alabama
36608,Crestview,Alabama
36608,Daphne,Alabama
36608,Denham Springs,Alabama
36608,Fairhope,Alabama
36608,Houston,Alabama
36608,Jacksonville,Alabama
36608,Loxley,Alabama
36608,Marietta,Alabama
36608,Marrero,Alabama
36608,Memphis,Alabama
36608,Milton,Alabama
36608,Mobile,Alabama
36608,Montgomery,Alabama
36608,Pensacola,Alabama
36608,Redmond,Alabama
36608,Rochester,Alabama
36608,Semmes,Alabama
36608,null,Alabama
36618,Albany,Alabama
36618,Grand Bay,Alabama
36618,Houma,Alabama
36618,Mobile,Alabama
36618,null,Alabama
36619,Braxton,Alabama
36619,Grand Bay,Alabama
36619,Jackson,Alabama
36619,Marianna,Alabama
36619,Moselle,Alabama
36619,New Braunfels,Alabama
36619,null,Alabama
36701,null,Alabama
36801,Auburn,Alabama
36801,Birmingham,Alabama
36801,Opelika,Alabama
36801,Stone Mountain,Alabama
36801,null,Alabama
36830,Birmingham,Alabama
36830,Dadeville,Alabama
36830,Montgomery,Alabama
36830,Opelika,Alabama
36830,Tampa,Alabama
36830,null,Alabama
36832,Moscow,Alabama
36863,Lanett,Alabama
36863,null,Alabama
36867,Saint Petersburg,Alabama
36870,Alexander City,Alabama
36870,Americus,Alabama
36870,Cumming,Alabama
36870,Erin,Alabama
36870,Midland,Alabama
36870,Moscow,Alabama
36870,Opelika,Alabama
36870,Phenix City,Alabama
36870,West Point,Alabama
36870,null,Alabama
37030,Dixon Springs,Tennessee
37030,Westmoreland,Tennessee
37040,Ashland City,Tennessee
37040,Bowling Green,Tennessee
37040,Clarksville,Tennessee
37040,Fort Campbell North,Tennessee
37040,null,Tennessee
37055,Charlotte,Tennessee
37055,Dickson,Tennessee
37055,Goodlettsville,Tennessee
37055,Mount Juliet,Tennessee
37055,null,Tennessee
37087,Antioch,Tennessee
37087,null,Tennessee
37115,Goodlettsville,Tennessee
37115,Lebanon,Tennessee
37115,Mount Juliet,Tennessee
37115,Old Hickory,Tennessee
37122,Rushville,Tennessee
37138,Clarksville,Tennessee
37138,Gallatin,Tennessee
37138,Hermitage,Tennessee
37138,Lebanon,Tennessee
37138,Mount Juliet,Tennessee
37138,Paducah,Tennessee
37148,Nashville,Tennessee
37148,null,Tennessee
37167,Clarksville,Tennessee
37167,Gallatin,Tennessee
37167,Lavergne,Tennessee
37167,Lawrenceburg,Tennessee
37167,Murfreesboro,Tennessee
37167,Nashville,Tennessee
37167,Smyrna,Tennessee
37207,Louisville,Tennessee
37207,Nashville,Tennessee
37207,null,Tennessee
37209,Antioch,Tennessee
37209,Goodlettsville,Tennessee
37209,Lawrenceville,Tennessee
37211,Cleveland,Tennessee
37211,Hendersonville,Tennessee
37211,Murfreesboro,Tennessee
37211,Nashville,Tennessee
37211,Plymouth,Tennessee
37211,Redmond,Tennessee
37211,Rossville,Tennessee
37211,null,Tennessee
37311,Chattanooga,Tennessee
37311,Cleveland,Tennessee
37311,Dalton,Tennessee
37311,Harriman,Tennessee
37311,Hernando,Tennessee
37311,Murfreesboro,Tennessee
37311,Nashville,Tennessee
37311,Ooltewah,Tennessee
37311,Pelkie,Tennessee
37311,null,Tennessee
37323,Cleveland,Tennessee
37408,Chattanooga,Tennessee
37408,London,Tennessee
37408,Rossville,Tennessee
37408,null,Tennessee
37421,Aberdeen,Tennessee
37421,Alamosa,Tennessee
37421,Arden,Tennessee
37421,Asheville,Tennessee
37421,Atlanta,Tennessee
37421,Bealeton,Tennessee
37421,Benton,Tennessee
37421,Blue Ridge,Tennessee
37421,Calhoun,Tennessee
37421,Charleston,Tennessee
37421,Chattanooga,Tennessee
37421,Cleveland,Tennessee
37421,Collegedale,Tennessee
37421,Columbia,Tennessee
37421,Dayton,Tennessee
37421,Duluth,Tennessee
37421,Franklin,Tennessee
37421,Harold,Tennessee
37421,Hayesville,Tennessee
37421,Hixson,Tennessee
37421,Huntingdon Valley,Tennessee
37421,Irving,Tennessee
37421,Knoxville,Tennessee
37421,Krakow,Tennessee
37421,Land O' Lakes,Tennessee
37421,Lenoir City,Tennessee
37421,Little Rock,Tennessee
37421,Madison,Tennessee
37421,Manassas,Tennessee
37421,Marietta,Tennessee
37421,Maryville,Tennessee
37421,McMinnville,Tennessee
37421,Millbrook,Tennessee
37421,Muscle Shoals,Tennessee
37421,Nashville,Tennessee
37421,Pittsburgh,Tennessee
37421,Ringgold,Tennessee
37421,Roseland,Tennessee
37421,Rossville,Tennessee
37421,Roswell,Tennessee
37421,Salisbury,Tennessee
37421,San Diego,Tennessee
37421,Soddy-Daisy,Tennessee
37421,Toney,Tennessee
37421,Whitwell,Tennessee
37421,null,Tennessee
37601,Jonesborough,Tennessee
37660,Big Stone Gap,Tennessee
37660,Bristol,Tennessee
37660,Elizabethton,Tennessee
37660,Elk Grove Village,Tennessee
37660,Franklin,Tennessee
37660,Johnson City,Tennessee
37660,Jonesborough,Tennessee
37660,Kingsport,Tennessee
37660,Morristown,Tennessee
37660,Tazewell,Tennessee
37660,Wise,Tennessee
37660,null,Tennessee
37738,Seymour,Tennessee
37748,Oakdale,Tennessee
37748,Rockwood,Tennessee
37748,null,Tennessee
37771,null,Tennessee
37814,Morristown,Tennessee
37814,null,Tennessee
37876,Bristol,Tennessee
37876,Kodak,Tennessee
37876,Morristown,Tennessee
37876,Sevierville,Tennessee
37876,Seymour,Tennessee
37876,Strawberry Plains,Tennessee
37876,Tellico Plains,Tennessee
37876,null,Tennessee
37912,Knoxville,Tennessee
37912,Lenoir City,Tennessee
37912,null,Tennessee
37920,Albertville,Tennessee
37920,Knoxville,Tennessee
37920,Loudon,Tennessee
37921,Clinton,Tennessee
37921,Knoxville,Tennessee
37921,null,Tennessee
38002,Memphis,Tennessee
38008,Milan,Tennessee
38024,Dyersburg,Tennessee
38024,Halls,Tennessee
38024,Little Rock,Tennessee
38024,Marietta,Tennessee
38024,Milan,Tennessee
38024,Nashville,Tennessee
38024,South Fulton,Tennessee
38063,Olive Branch,Tennessee
38115,Cordova,Tennessee
38115,Laurel,Tennessee
38115,Memphis,Tennessee
38115,null,Tennessee
38116,Alexander,Tennessee
38116,Memphis,Tennessee
38116,null,Tennessee
38122,Cordova,Tennessee
38122,Memphis,Tennessee
38122,null,Tennessee
38127,Jonesboro,Tennessee
38127,Mabelvale,Tennessee
38127,Marion,Tennessee
38127,Memphis,Tennessee
38237,Dresden,Tennessee
38237,Jackson,Tennessee
38237,Martin,Tennessee
38237,Nashville,Tennessee
38237,Paris,Tennessee
38237,Springdale,Tennessee
38330,Decaturville,Tennessee
38330,Humboldt,Tennessee
38330,Jackson,Tennessee
38330,Mayfield,Tennessee
38330,Memphis,Tennessee
38583,Cookeville,Tennessee
38583,Crossville,Tennessee
38583,Lafayette,Tennessee
38583,Monroe,Tennessee
38801,Sumrall,Mississippi
38801,null,Mississippi
38827,San Bruno,Mississippi
38834,Brownsville,Mississippi
38834,Corinth,Mississippi
38834,Jackson,Mississippi
38834,Olive Branch,Mississippi
38834,Shannon,Mississippi
38834,Tupelo,Mississippi
38834,null,Mississippi
39042,Brandon,Mississippi
39042,Chantilly,Mississippi
39042,Gardendale,Mississippi
39042,Jackson,Mississippi
39047,Brandon,Mississippi
39047,Fairfax Station,Mississippi
39047,Humboldt,Mississippi
39047,Jackson,Mississippi
39047,Jasper,Mississippi
39047,Ridgeland,Mississippi
39047,Ruston,Mississippi
39047,West Monroe,Mississippi
39047,null,Mississippi
39051,Carthage,Mississippi
39051,Hattiesburg,Mississippi
39051,Jackson,Mississippi
39051,Kosciusko,Mississippi
39051,Madison,Mississippi
39051,Marietta,Mississippi
39051,Meridian,Mississippi
39051,Philadelphia,Mississippi
39051,Ridgeland,Mississippi
39051,null,Mississippi
39056,Clinton,Mississippi
39056,Germantown,Mississippi
39056,Hattiesburg,Mississippi
39056,Jackson,Mississippi
39056,Ridgeland,Mississippi
39056,null,Mississippi
39073,Jackson,Mississippi
39073,Metairie,Mississippi
39073,Pearl,Mississippi
39073,null,Mississippi
39201,Atlanta,Mississippi
39201,Brandon,Mississippi
39201,Greenbrier,Mississippi
39201,Houston,Mississippi
39201,Jackson,Mississippi
39201,Lawrenceville,Mississippi
39201,Madison,Mississippi
39201,Philadelphia,Mississippi
39201,Ridgeland,Mississippi
39201,Winnsboro,Mississippi
39201,null,Mississippi
39208,Brandon,Mississippi
39208,Jackson,Mississippi
39208,Smithville,Mississippi
39208,Waltham,Mississippi
39208,null,Mississippi
39209,Jackson,Mississippi
39301,Atlanta,Mississippi
39301,Bailey,Mississippi
39301,Booneville,Mississippi
39301,Butler,Mississippi
39301,Decatur,Mississippi
39301,Germantown,Mississippi
39301,Hot Springs Village,Mississippi
39301,Jackson,Mississippi
39301,Little Rock,Mississippi
39301,Marietta,Mississippi
39301,Meridian,Mississippi
39301,Newton,Mississippi
39301,Opelousas,Mississippi
39301,Philadelphia,Mississippi
39301,Pulaski,Mississippi
39301,Seminary,Mississippi
39301,Starkville,Mississippi
39301,null,Mississippi
39307,Laurel,Mississippi
39307,null,Mississippi
39503,Bay Saint Louis,Mississippi
39503,Biloxi,Mississippi
39503,D'Iberville,Mississippi
39503,Denham Springs,Mississippi
39503,Gautier,Mississippi
39503,Gulfport,Mississippi
39503,Jackson,Mississippi
39503,Ocean Springs,Mississippi
39503,Ridgeland,Mississippi
39503,Slidell,Mississippi
39503,null,Mississippi
39507,Bay Saint Louis,Mississippi
39507,Biloxi,Mississippi
39507,Carthage,Mississippi
39507,Daphne,Mississippi
39507,Folsom,Mississippi
39507,Gulfport,Mississippi
39507,Hattiesburg,Mississippi
39507,Lucedale,Mississippi
39507,Mabelvale,Mississippi
39507,Milwaukee,Mississippi
39507,Mobile,Mississippi
39507,Moss Point,Mississippi
39507,Ocean Springs,Mississippi
39507,Slidell,Mississippi
39507,Tallahassee,Mississippi
39507,null,Mississippi
39531,Batesville,Mississippi
39531,Baton Rouge,Mississippi
39531,Biloxi,Mississippi
39531,Fort Huachuaca,Mississippi
39531,Fort Lee,Mississippi
39531,Greenville,Mississippi
39531,Gulfport,Mississippi
39531,Hopedale,Mississippi
39531,Laurel,Mississippi
39531,Mandeville,Mississippi
39531,New Albany,Mississippi
39531,New Orleans,Mississippi
39531,Northport,Mississippi
39531,Ocean Springs,Mississippi
39531,Pascagoula,Mississippi
39531,Slidell,Mississippi
39531,null,Mississippi
39560,Slidell,Mississippi
39648,Houston,Mississippi
39648,Lucedale,Mississippi
39648,McComb,Mississippi
39648,New Orleans,Mississippi
39648,null,Mississippi
39702,Alabaster,Mississippi
39702,Columbus,Mississippi
39702,Hattiesburg,Mississippi
39702,Memphis,Mississippi
39702,Starkville,Mississippi
39702,null,Mississippi
39823,Albany,Georgia
39823,Bluffton,Georgia
39823,Moline,Georgia
39823,Thomasville,Georgia
39828,null,Georgia
40010,La Grange,Kentucky
40047,Brooks,Kentucky
40047,Cincinnati,Kentucky
40047,Evansville,Kentucky
40165,Erlanger,Kentucky
40165,null,Kentucky
40219,Elizabethtown,Kentucky
40219,Erlanger,Kentucky
40219,Goshen,Kentucky
40219,Indianapolis,Kentucky
40219,Louisville,Kentucky
40219,Shelbyville,Kentucky
40219,null,Kentucky
40701,Annville,Kentucky
40701,Eubank,Kentucky
40701,Evansville,Kentucky
40701,London,Kentucky
40701,Olmsted Falls,Kentucky
4072,Augusta,Maine
4072,Bar Harbor,Maine
4072,Bedford,Maine
4072,Biddeford,Maine
4072,Brooklyn,Maine
4072,Buxton,Maine
4072,Cape Elizabeth,Maine
4072,Freeport,Maine
4072,Greer,Maine
4072,Hebron,Maine
4072,Orono,Maine
4072,Portland,Maine
4072,Sabattus,Maine
4072,Saco,Maine
4072,Scarborough,Maine
4072,Springfield,Maine
4072,Windham Center,Maine
4072,null,Maine
42134,Bowling Green,Kentucky
42134,Bremen,Kentucky
42134,Portland,Kentucky
42134,Riverton,Kentucky
42134,Tullahoma,Kentucky
42134,White House,Kentucky
42134,null,Kentucky
42240,Englewood,Kentucky
42240,Evansville,Kentucky
42303,Owensboro,Kentucky
42420,Chicago,Kentucky
42420,Evansville,Kentucky
42420,Henderson,Kentucky
42420,Hopkinsville,Kentucky
42420,Indianapolis,Kentucky
42420,Louisville,Kentucky
42420,Madisonville,Kentucky
42420,Owensboro,Kentucky
42420,null,Kentucky
43068,Columbus,Ohio
43912,Macedonia,Ohio
43912,Moundsville,Ohio
43912,Saint Clairsville,Ohio
44130,Bedford,Ohio
44130,Brunswick,Ohio
44130,Chagrin Falls,Ohio
44130,Cleveland,Ohio
44130,Painesville,Ohio
44130,Wickliffe,Ohio
44236,Elk Grove Village,Ohio
44236,Macedonia,Ohio
45011,Denver,Ohio
45011,null,Ohio
45246,Chicago,Ohio
45246,Cincinnati,Ohio
45246,Dayton,Ohio
45246,East Northport,Ohio
45246,Fairfield,Ohio
45246,Fort Mitchell,Ohio
45246,Harrison,Ohio
45246,Loveland,Ohio
45246,New Castle,Ohio
45246,West Chester,Ohio
45246,null,Ohio
45373,Chambersburg,Ohio
45373,Dayton,Ohio
45373,Normal,Ohio
45373,Sidney,Ohio
45601,Denver,Ohio
45663,Alexander City,Ohio
46038,Belgrade,Indiana
46038,Fishers,Indiana
46038,Monon,Indiana
46038,null,Indiana
46123,Belgrade,Indiana
46123,Brownsburg,Indiana
46123,Plainfield,Indiana
46168,Bloomington,Indiana
46254,Indianapolis,Indiana
46254,Los Angeles,Indiana
46514,Fort Wayne,Indiana
46545,Granger,Indiana
46545,Mishawaka,Indiana
46545,null,Indiana
46614,null,Indiana
47130,Georgetown,Indiana
47130,Jeffersonville,Indiana
47130,null,Indiana
47331,Richmond,Indiana
47441,Bloomington,Indiana
47441,Elk Grove,Indiana
47441,null,Indiana
47670,Henderson,Indiana
47904,null,Indiana
48067,Chennai,Michigan
48603,Albion,Michigan
48603,Alma,Michigan
48603,Alpena,Michigan
48603,Apopka,Michigan
48603,Arlington,Michigan
48603,Ashley,Michigan
48603,Atlanta,Michigan
48603,Auburn,Michigan
48603,Bad Axe,Michigan
48603,Baltimore,Michigan
48603,Battle Creek,Michigan
48603,Bay City,Michigan
48603,Beltsville,Michigan
48603,Big Rapids,Michigan
48603,Birch Run,Michigan
48603,Blanchard,Michigan
48603,Boca Raton,Michigan
48603,Bowling Green,Michigan
48603,Bridgeport,Michigan
48603,Brighton,Michigan
48603,Burton,Michigan
48603,Caledonia,Michigan
48603,Canton,Michigan
48603,Caro,Michigan
48603,Casselman,Michigan
48603,Charlevoix,Michigan
48603,Chesaning,Michigan
48603,Chicago,Michigan
48603,Circle Pines,Michigan
48603,Clare,Michigan
48603,Clarkston,Michigan
48603,Cleveland,Michigan
48603,Clio,Michigan
48603,Coldwater,Michigan
48603,Columbus,Michigan
48603,Comstock Park,Michigan
48603,Crystal,Michigan
48603,Davison,Michigan
48603,DeLand,Michigan
48603,Detroit,Michigan
48603,Durand,Michigan
48603,East Lansing,Michigan
48603,Elk Grove Village,Michigan
48603,Englewood,Michigan
48603,Farmington,Michigan
48603,Farwell,Michigan
48603,Fenton,Michigan
48603,Flint,Michigan
48603,Flushing,Michigan
48603,Frankenmuth,Michigan
48603,Freeland,Michigan
48603,Gaylord,Michigan
48603,Gladwin,Michigan
48603,Glendale,Michigan
48603,Goodrich,Michigan
48603,Grand Blanc,Michigan
48603,Grand Ledge,Michigan
48603,Grand Rapids,Michigan
48603,Grover,Michigan
48603,Harrison,Michigan
48603,Hastings,Michigan
48603,Hemlock,Michigan
48603,Holly,Michigan
48603,Houghton Lake,Michigan
48603,Houston,Michigan
48603,Ithaca,Michigan
48603,Jackson,Michigan
48603,Kawkawlin,Michigan
48603,Keego Harbor,Michigan
48603,Kissimmee,Michigan
48603,Lachine,Michigan
48603,Lake City,Michigan
48603,Lake Leelanau,Michigan
48603,Lake Orion,Michigan
48603,Lake Zurich,Michigan
48603,Lakewood,Michigan
48603,Lansing,Michigan
48603,Lapeer,Michigan
48603,Livonia,Michigan
48603,Lockhart,Michigan
48603,Louisville,Michigan
48603,Lowell,Michigan
48603,Madison,Michigan
48603,Madison Heights,Michigan
48603,Marietta,Michigan
48603,Marlette,Michigan
48603,Marquette,Michigan
48603,Marshfield,Michigan
48603,Maryland Heights,Michigan
48603,Menlo Park,Michigan
48603,Metamora,Michigan
48603,Miami,Michigan
48603,Midland,Michigan
48603,Milford,Michigan
48603,Minneapolis,Michigan
48603,Montrose,Michigan
48603,Moscow,Michigan
48603,Mount Pleasant,Michigan
48603,Mt. Morris,Michigan
48603,Muskegon,Michigan
48603,Naubinway,Michigan
48603,New Berlin,Michigan
48603,New Windsor,Michigan
48603,Northville,Michigan
48603,Novi,Michigan
48603,Onsted,Michigan
48603,Orlando,Michigan
48603,Owosso,Michigan
48603,Oxford,Michigan
48603,Petoskey,Michigan
48603,Phoenix,Michigan
48603,Prudenville,Michigan
48603,Romulus,Michigan
48603,Roscommon,Michigan
48603,Royal Oak,Michigan
48603,Saginaw,Michigan
48603,Saint Johns,Michigan
48603,Saint Louis,Michigan
48603,Saline,Michigan
48603,San José,Michigan
48603,Sanford,Michigan
48603,Sezemice,Michigan
48603,Sherman,Michigan
48603,South Lyon,Michigan
48603,Southfield,Michigan
48603,Sterling Heights,Michigan
48603,Stratham,Michigan
48603,Sturgis,Michigan
48603,Swartz Creek,Michigan
48603,Tawas City,Michigan
48603,Tell City,Michigan
48603,Tomah,Michigan
48603,Troy,Michigan
48603,Twin Lake,Michigan
48603,Unionville,Michigan
48603,Utica,Michigan
48603,Vassar,Michigan
48603,Volgograd,Michigan
48603,Walled Lake,Michigan
48603,Watertown,Michigan
48603,Weidman,Michigan
48603,West Branch,Michigan
48603,Westerville,Michigan
48603,Westland,Michigan
48603,White Cloud,Michigan
48603,Willoughby,Michigan
48603,Wilmington,Michigan
48603,Ypsilanti,Michigan
48603,null,Michigan
48604,Bay City,Michigan
48604,Midland,Michigan
48604,Mount Pleasant,Michigan
48604,Saginaw,Michigan
48604,null,Michigan
48634,Bay City,Michigan
48634,Midland,Michigan
48634,Saginaw,Michigan
48634,Traverse City,Michigan
48634,Troy,Michigan
48634,Vassar,Michigan
48634,Walled Lake,Michigan
48640,Bay City,Michigan
48640,Davison,Michigan
48640,Frankenmuth,Michigan
48640,Hemlock,Michigan
48640,Livonia,Michigan
48640,Madison,Michigan
48640,Midland,Michigan
48640,Saginaw,Michigan
48640,null,Michigan
49015,Durand,Michigan
49015,Lansing,Michigan
49015,Saginaw,Michigan
49022,Burlington,Michigan
50131,Ames,Iowa
50131,Ankeny,Iowa
50131,Audubon,Iowa
50131,Bettendorf,Iowa
50131,Council Bluffs,Iowa
50131,Des Moines,Iowa
50131,Fayette,Iowa
50131,Fulton,Iowa
50131,Kansas City,Iowa
50131,Omaha,Iowa
50131,Osage Beach,Iowa
50131,Osceola,Iowa
50131,Ottumwa,Iowa
50131,Union,Iowa
50131,Urbandale,Iowa
50131,West Des Moines,Iowa
50131,null,Iowa
50707,Waterloo,Iowa
53045,Anamosa,Wisconsin
53045,Benton,Wisconsin
53045,Deerfield,Wisconsin
53045,Hartland,Wisconsin
53045,Madison,Wisconsin
53045,Maquoketa,Wisconsin
53045,Marathon,Wisconsin
53045,Milwaukee,Wisconsin
53045,Mukwonago,Wisconsin
53045,Oak Creek,Wisconsin
53045,Oconomowoc,Wisconsin
53045,Oshkosh,Wisconsin
53045,Racine,Wisconsin
53045,South Milwaukee,Wisconsin
53045,St Louis,Wisconsin
53045,Waukesha,Wisconsin
53045,Waupun,Wisconsin
53045,null,Wisconsin
53051,Amstetten,Wisconsin
53051,Chicago,Wisconsin
53051,Madison,Wisconsin
53051,Marinette,Wisconsin
53051,Menomonee Falls,Wisconsin
53051,Milwaukee,Wisconsin
53051,Minneapolis,Wisconsin
53051,Plymouth,Wisconsin
53051,Pompano Beach,Wisconsin
53051,Redmond,Wisconsin
53051,West Bend,Wisconsin
53051,null,Wisconsin
53115,Benton,Wisconsin
53115,Chicago,Wisconsin
53115,Delavan,Wisconsin
53115,Madison,Wisconsin
53115,Maquoketa,Wisconsin
53115,null,Wisconsin
53121,Delavan,Wisconsin
53121,Elmhurst,Wisconsin
53546,De Forest,Wisconsin
53546,Janesville,Wisconsin
53546,null,Wisconsin
60002,Anamosa,Illinois
60002,Antioch,Illinois
60002,Benton,Illinois
60002,Chicago,Illinois
60002,Maquoketa,Illinois
60106,Addison,Illinois
60106,Berlin,Illinois
60106,Chicago,Illinois
60106,Lockport,Illinois
60106,Schaumburg,Illinois
60106,Woodridge,Illinois
60106,Woodstock,Illinois
60106,null,Illinois
60139,Elmhurst,Illinois
60139,Wheaton,Illinois
60173,Bloomington,Illinois
60173,Chicago,Illinois
60173,Cicero,Illinois
60173,Itasca,Illinois
60173,Northbrook,Illinois
60173,Oak Forest,Illinois
60173,Schaumburg,Illinois
60173,Streamwood,Illinois
60173,Willow Springs,Illinois
60173,null,Illinois
60185,Willow Springs,Illinois
60453,Berwyn,Illinois
60453,Chicago,Illinois
60543,Chicago,Illinois
60543,null,Illinois
61053,Burlington,Illinois
61053,Clinton,Illinois
61053,DeKalb,Illinois
61053,Freeport,Illinois
61053,Lena,Illinois
61053,Mount Morris,Illinois
61053,Stockton,Illinois
61053,null,Illinois
61061,Antioch,Illinois
61081,Burlington,Illinois
61081,DeKalb,Illinois
61081,Dixon,Illinois
61081,Freeport,Illinois
61081,Rock Falls,Illinois
61081,Sterling,Illinois
61081,null,Illinois
61270,Davenport,Illinois
61270,Freeport,Illinois
61270,Sharon,Illinois
61341,Bloomington,Illinois
61341,Chicago,Illinois
61341,New York,Illinois
61341,Ocean View,Illinois
61341,null,Illinois
61455,Austin,Illinois
61455,Beardstown,Illinois
61455,Benton,Illinois
61455,Bloomington,Illinois
61455,Des Moines,Illinois
61455,Edwardsville,Illinois
61455,Livonia,Illinois
61455,Macomb,Illinois
61455,Normal,Illinois
61455,Overland Park,Illinois
61455,Petersburg,Illinois
61455,Pleasanton,Illinois
61455,Quincy,Illinois
61455,Redmond,Illinois
61455,Roseville,Illinois
61455,Table Grove,Illinois
61455,Washington,Illinois
61455,null,Illinois
62801,Aviston,Illinois
62801,Bloomington,Illinois
62801,Breese,Illinois
62801,Centralia,Illinois
62801,Des Moines,Illinois
62801,Edwardsville,Illinois
62801,Evansville,Illinois
62801,Fairview Heights,Illinois
62801,Hazelwood,Illinois
62801,Highland,Illinois
62801,Hot Springs Village,Illinois
62801,Mascoutah,Illinois
62801,Mt. Vernon,Illinois
62801,Salem,Illinois
62801,St Louis,Illinois
62801,West Frankfort,Illinois
62863,Marion,Illinois
63019,Mokane,Missouri
63019,null,Missouri
63042,Elsah,Missouri
63042,Florissant,Missouri
63042,Granite City,Missouri
63042,Kansas City,Missouri
63042,O'Fallon,Missouri
63042,St Louis,Missouri
63042,null,Missouri
63376,Belgrade,Missouri
63376,Calumet City,Missouri
63376,Chesterfield,Missouri
63376,City of Saint Peters,Missouri
63376,Florissant,Missouri
63376,Grandview,Missouri
63376,Independence,Missouri
63376,St Louis,Missouri
63376,null,Missouri
64116,Blue Springs,Missouri
64116,Cleveland,Missouri
64116,Hardin,Missouri
64116,Heflin,Missouri
64116,Kansas City,Missouri
64116,Kearney,Missouri
64116,Lake Ozark,Missouri
64116,Liberty,Missouri
64116,Mount Laurel,Missouri
64116,Omaha,Missouri
64116,Overland Park,Missouri
64116,Ozark,Missouri
64116,Platte City,Missouri
64116,Saint Petersburg,Missouri
64116,Stockton,Missouri
64116,West Plains,Missouri
64116,null,Missouri
64503,Fort Riley-Camp Whiteside,Missouri
64503,Kansas City,Missouri
64503,St. Joseph,Missouri
65251,Holden,Missouri
65648,Joplin,Missouri
65738,Joplin,Missouri
65738,Murphysboro,Missouri
65738,Rogers,Missouri
65738,Springfield,Missouri
65738,St Louis,Missouri
65803,Springfield,Missouri
65803,null,Missouri
67207,Brooklyn,Kansas
67207,Concordia,Kansas
67207,Fort Riley-Camp Whiteside,Kansas
67207,Hays,Kansas
67207,Hutchinson,Kansas
67207,Red Deer,Kansas
67207,Tonkawa,Kansas
67207,Warsaw,Kansas
67207,Wichita,Kansas
67207,Wyoming,Kansas
67207,null,Kansas
67211,Wichita,Kansas
67211,null,Kansas
67216,Wichita,Kansas
67216,null,Kansas
67301,Independence,Kansas
67301,Parsons,Kansas
67601,Benkelman,Kansas
67601,Colby,Kansas
67601,Hays,Kansas
67601,Hill City,Kansas
67601,Kaunas,Kansas
67601,La Crosse,Kansas
67601,Phillipsburg,Kansas
67601,Red Cloud,Kansas
67601,null,Kansas
70804,Houston,Louisiana
7104,Athens,New Jersey
7104,Baldwin,New Jersey
7104,Baltimore,New Jersey
7104,Basking Ridge,New Jersey
7104,Bear,New Jersey
7104,Beaver,New Jersey
7104,Bethesda,New Jersey
7104,Bethlehem,New Jersey
7104,Brentwood,New Jersey
7104,Brick Township,New Jersey
7104,Brooklyn,New Jersey
7104,Charleston,New Jersey
7104,Chester,New Jersey
7104,Cleveland,New Jersey
7104,Cold Spring,New Jersey
7104,Columbia,New Jersey
7104,Columbus,New Jersey
7104,Commack,New Jersey
7104,Crestwood,New Jersey
7104,Danbury,New Jersey
7104,Dayton,New Jersey
7104,Deer Park,New Jersey
7104,Dodgewood,New Jersey
7104,Dumont,New Jersey
7104,East Brunswick,New Jersey
7104,East Hampton,New Jersey
7104,Eatontown,New Jersey
7104,Edison,New Jersey
7104,Elizabeth,New Jersey
7104,Englewood,New Jersey
7104,Fairburn,New Jersey
7104,Gaithersburg,New Jersey
7104,Garfield,New Jersey
7104,Greenwich,New Jersey
7104,Hamburg,New Jersey
7104,Hempstead,New Jersey
7104,Hillside,New Jersey
7104,Hoboken,New Jersey
7104,Holtsville,New Jersey
7104,Indianapolis,New Jersey
7104,Irvington,New Jersey
7104,Islip Terrace,New Jersey
7104,Jackson Heights,New Jersey
7104,Jamaica,New Jersey
7104,Jersey City,New Jersey
7104,Jim Thorpe,New Jersey
7104,Jonesboro,New Jersey
7104,Kennett Square,New Jersey
7104,Lake Worth,New Jersey
7104,Leola,New Jersey
7104,Lincroft,New Jersey
7104,Little Falls,New Jersey
7104,Livingston Manor,New Jersey
7104,Long Beach,New Jersey
7104,Los Angeles,New Jersey
7104,Lufkin,New Jersey
7104,Mahwah,New Jersey
7104,Mamaroneck,New Jersey
7104,Mankato,New Jersey
7104,Maple Shade,New Jersey
7104,Marietta,New Jersey
7104,Marlboro,New Jersey
7104,Matawan,New Jersey
7104,Mattawan,New Jersey
7104,McKeesport,New Jersey
7104,Media,New Jersey
7104,Miami,New Jersey
7104,Middletown,New Jersey
7104,Monsey,New Jersey
7104,Montgomery,New Jersey
7104,Montrose,New Jersey
7104,Morrisville,New Jersey
7104,Mount Airy,New Jersey
7104,Mount Laurel,New Jersey
7104,New Brunswick,New Jersey
7104,New Canaan,New Jersey
7104,New Haven,New Jersey
7104,New York,New Jersey
7104,Newark,New Jersey
7104,Norristown,New Jersey
7104,Nyack,New Jersey
7104,Oklahoma City,New Jersey
7104,Parsippany,New Jersey
7104,Paterson,New Jersey
7104,Philadelphia,New Jersey
7104,Plainfield,New Jersey
7104,Pleasantville,New Jersey
7104,Portland,New Jersey
7104,Pottstown,New Jersey
7104,Queens Village,New Jersey
7104,Rahway,New Jersey
7104,Randolph Township,New Jersey
7104,Reading,New Jersey
7104,Rensselaer,New Jersey
7104,Ridgefield Park,New Jersey
7104,Ridgewood,New Jersey
7104,Roosevelt,New Jersey
7104,Salford,New Jersey
7104,Saratoga Springs,New Jersey
7104,Sayreville,New Jersey
7104,Shrewsbury,New Jersey
7104,Somerville,New Jersey
7104,South Amboy,New Jersey
7104,South Glens Falls,New Jersey
7104,South River,New Jersey
7104,Springfield Gardens,New Jersey
7104,Stamford,New Jersey
7104,Staten Island,New Jersey
7104,Suwanee,New Jersey
7104,Tempe,New Jersey
7104,The Bronx,New Jersey
7104,Tiffin,New Jersey
7104,Troy,New Jersey
7104,Washington,New Jersey
7104,Washington Township,New Jersey
7104,Weehawken,New Jersey
7104,West Babylon,New Jersey
7104,Westfield,New Jersey
7104,Willingboro,New Jersey
7104,Williston,New Jersey
7104,Wilmington,New Jersey
7104,Woodbridge,New Jersey
7104,null,New Jersey
71282,Homer,Louisiana
71282,Houston,Louisiana
71282,null,Louisiana
72401,Clyman,Arkansas
72401,Plainfield,Arkansas
72401,null,Arkansas
72801,'Aiea,Arkansas
72801,null,Arkansas
72956,Elizabethtown,Arkansas
72956,Fort Smith,Arkansas
72956,Lowell,Arkansas
72956,Tulsa,Arkansas
72956,null,Arkansas
73128,Bowmanville,Oklahoma
73128,Little Rock,Oklahoma
73128,Oklahoma City,Oklahoma
73128,Washington,Oklahoma
74145,Claremore,Oklahoma
74145,Jenks,Oklahoma
74145,Sand Springs,Oklahoma
74145,Santa Barbara,Oklahoma
74145,Tulsa,Oklahoma
75041,Irving,Texas
75142,Athens,Texas
75142,Austin,Texas
75142,Dallas,Texas
75142,Duncanville,Texas
75142,Greenville,Texas
75142,Irving,Texas
75142,Seagoville,Texas
75142,Sulphur Springs,Texas
75142,Walkerton,Texas
75142,null,Texas
75701,Tyler,Texas
75703,Dallas,Texas
77034,Beaumont,Texas
77034,Boca Raton,Texas
77034,Dallas,Texas
77034,Houston,Texas
77034,Lake Jackson,Texas
77034,Pasadena,Texas
77034,Pearland,Texas
77034,Port Neches,Texas
77034,Salt Lake City,Texas
77034,Sandia,Texas
77034,Sinton,Texas
77034,St Louis,Texas
77034,Tomball,Texas
77034,Valencia,Texas
77065,Baton Rouge,Texas
77065,Cypress,Texas
77065,Houston,Texas
77065,Katy,Texas
77065,Pomona,Texas
77065,Salt Lake City,Texas
77065,Spring,Texas
77065,Suncook,Texas
77065,null,Texas
77083,Bellaire,Texas
77083,Brenham,Texas
77083,Houston,Texas
77083,Leander,Texas
77338,Baytown,Texas
77338,Cypress,Texas
77338,Houston,Texas
77338,Humble,Texas
77338,Palestine,Texas
77338,Suncook,Texas
77338,null,Texas
77373,Conroe,Texas
77373,Dallas,Texas
77373,Houston,Texas
77373,Huntsville,Texas
77373,Spring,Texas
77578,Exeter,Texas
77578,Houston,Texas
77578,League City,Texas
77578,Manvel,Texas
77578,Pearland,Texas
77578,Salt Lake City,Texas
77578,Spring,Texas
77578,Sugar Land,Texas
77578,Suncook,Texas
77578,Tyler,Texas
77578,null,Texas
77598,Dallas,Texas
77598,Edinburg,Texas
77598,Houston,Texas
77598,League City,Texas
77598,Mico,Texas
77598,Natchez,Texas
77598,New Westminster,Texas
77598,Pearland,Texas
77598,Salt Lake City,Texas
77598,Spring,Texas
77598,Suncook,Texas
77598,Webster,Texas
77598,null,Texas
77802,Oak Creek,Texas
78233,null,Texas
78602,Daphne,Texas
78602,Fairhope,Texas
78602,Houston,Texas
78602,Tbilisi,Texas
78602,null,Texas
78757,Austin,Texas
78757,Waco,Texas
80214,Chicago,Colorado
80303,Boulder,Colorado
80303,Commerce City,Colorado
80303,Crestone,Colorado
80303,Denver,Colorado
80303,Longmont,Colorado
80303,null,Colorado
8037,Absecon,New Jersey
8037,Berlin,New Jersey
8037,Cape May,New Jersey
8037,Gloucester City,New Jersey
8037,Lancaster,New Jersey
8037,Maple Shade,New Jersey
8037,Menlo Park,New Jersey
8037,Pottstown,New Jersey
8037,Tuckerton,New Jersey
8037,Williamstown,New Jersey
8037,Woodlyn,New Jersey
8037,null,New Jersey
81004,Pueblo,Colorado
8210,Absecon,New Jersey
8210,Baltimore,New Jersey
8210,Beach Haven,New Jersey
8210,Blackwood,New Jersey
8210,Bridgeton,New Jersey
8210,Cape May,New Jersey
8210,Cape May Court House,New Jersey
8210,Chester,New Jersey
8210,Cropseyville,New Jersey
8210,Dearborn,New Jersey
8210,Egg Harbor,New Jersey
8210,Marmora,New Jersey
8210,Mays Landing,New Jersey
8210,Millville,New Jersey
8210,North Andover,New Jersey
8210,Portage,New Jersey
8210,Quakertown,New Jersey
8210,Rahway,New Jersey
8210,Richmond,New Jersey
8210,Sacramento,New Jersey
8210,Sea Isle City,New Jersey
8210,Troy,New Jersey
8210,Turtle Creek,New Jersey
8210,Villas,New Jersey
8210,Wildwood,New Jersey
8210,null,New Jersey
8232,Mechanicsburg,New Jersey
8232,Parkville,New Jersey
8232,Pleasantville,New Jersey
8232,Villas,New Jersey
8232,null,New Jersey
84074,Santa Ana,Utah
85016,Gilbert,Arizona
85016,Indianapolis,Arizona
85016,Phoenix,Arizona
85034,Ann Arbor,Arizona
86326,Boulder,Arizona
86326,Glendale,Arizona
86326,Phoenix,Arizona
87031,Hatch,New Mexico
87031,Jemez Springs,New Mexico
87031,Moriarty,New Mexico
87035,Fort Defiance,New Mexico
87035,Moriarty,New Mexico
87035,Rio Rancho,New Mexico
87107,Albuquerque,New Mexico
87107,null,New Mexico
8753,Barnegat,New Jersey
8753,Beachwood,New Jersey
8753,Brick Township,New Jersey
8753,Browns Mills,New Jersey
8753,Chester Springs,New Jersey
8753,Egg Harbor,New Jersey
8753,Freehold Borough,New Jersey
8753,Hightstown,New Jersey
8753,Hopewell,New Jersey
8753,Issaquah,New Jersey
8753,Jackson Township,New Jersey
8753,Jersey City,New Jersey
8753,Kingston,New Jersey
8753,Mahwah,New Jersey
8753,Montclair,New Jersey
8753,Newark,New Jersey
8753,Plainfield,New Jersey
8753,Scotch Plains,New Jersey
8753,Tarrytown,New Jersey
8753,Toms River,New Jersey
8753,Trenton,New Jersey
8753,Ventnor City,New Jersey
8753,Wallingford,New Jersey
8753,Washington,New Jersey
8753,Yonkers,New Jersey
8753,null,New Jersey
89030,Los Angeles,Nevada
89502,Nevada City,Nevada
89502,Reno,Nevada
89502,Sparks,Nevada
89502,Stockton,Nevada
89502,null,Nevada
92083,Moscow,California
92675,Aliso Viejo,California
92675,Corona,California
92675,Dana Point,California
92675,Irvine,California
92675,Laguna Beach,California
92675,Mission Viejo,California
92675,Orange,California
92675,Oshkosh,California
92675,Perris,California
92675,Redding,California
92675,Riverside,California
92675,San Diego,California
92675,San Juan Capistrano,California
92675,South Gate,California
92675,Tempe,California
93101,Burbank,California
93101,Goleta,California
93101,Los Angeles,California
93101,Northampton,California
93101,San Ramon,California
93101,Santa Barbara,California
93101,null,California
94087,Cupertino,California
94087,Fremont,California
94087,Los Altos,California
94087,Norfolk,California
94087,Oakland,California
94087,San Francisco,California
94087,San Jose,California
94087,Santa Barbara,California
94087,Santa Cruz,California
94087,Sunnyvale,California
94087,null,California
96814,'Ewa Beach,Hawaii
96814,Alamo,Hawaii
96814,Honolulu,Hawaii
96814,Oak Harbor,Hawaii
96819,Honolulu,Hawaii
96819,null,Hawaii
98229,Bellingham,Washington
98229,Chicago,Washington
98229,Lakebay,Washington
98229,Omaha,Washington
98229,Seattle,Washington
98229,Stayton,Washington
